{"type": "FeatureCollection", "features": [{"type": "Feature", "geometry": {"type": "Polygon", "coordinates": [[[-8.0366185, 41.0974815], [-8.0363889, 41.0975829], [-8.0365314, 41.0966877], [-8.0373849, 41.0966793], [-8.0373679, 41.0967583], [-8.0371087, 41.0967968], [-8.0369363, 41.0968965], [-8.0368747, 41.0970261], [-8.0368748, 41.097181], [-8.0369723, 41.0974636], [-8.0366185, 41.0974815]]]}, "properties": {}}, {"type": "Feature", "geometry": {"type": "LineString", "coordinates": [[-8.0395535, 41.1370391], [-8.0395595, 41.1369992], [-8.0396585, 41.1368461], [-8.039766, 41.1367224], [-8.0400369, 41.1365184], [-8.0402327, 41.1363588], [-8.0402673, 41.1362723], [-8.040281, 41.1360013], [-8.0403454, 41.1358114], [-8.0404524, 41.1356582], [-8.0406002, 41.1355104], [-8.0408335, 41.1353043], [-8.0409945, 41.1351589], [-8.0413593, 41.1351185], [-8.0418582, 41.1350942], [-8.0422228, 41.1351023], [-8.0425177, 41.1352259], [-8.0428424, 41.1353043], [-8.0431078, 41.1353956], [-8.0433359, 41.1355285], [-8.0434781, 41.1355609], [-8.0436953, 41.1355144], [-8.043918, 41.1353528], [-8.044229, 41.1350861], [-8.0447359, 41.1348603], [-8.0450604, 41.1347266], [-8.0454306, 41.1345811], [-8.0456344, 41.1344437], [-8.0458168, 41.1342377], [-8.0460314, 41.1341003], [-8.0462674, 41.1340882], [-8.0466698, 41.1339508], [-8.0469487, 41.1337326], [-8.0471526, 41.1334054], [-8.0473028, 41.1332559], [-8.0474905, 41.1331629], [-8.0478043, 41.1329856], [-8.0480592, 41.1327872], [-8.0482791, 41.1325528], [-8.0485178, 41.132226], [-8.048609, 41.1320199], [-8.0485634, 41.1316478], [-8.0485259, 41.131373], [-8.0483703, 41.1311589], [-8.047807, 41.130771], [-8.0477105, 41.1305124], [-8.0478124, 41.1302376], [-8.0480162, 41.1298861], [-8.0483649, 41.1295669], [-8.0487136, 41.1294376], [-8.0490194, 41.1294497], [-8.049234, 41.1295467], [-8.0493842, 41.129672], [-8.0495987, 41.1298255], [-8.0499313, 41.1298255], [-8.0502049, 41.1297528], [-8.0506609, 41.1295507], [-8.0508111, 41.1294416], [-8.0508326, 41.1292841], [-8.0508862, 41.1291548], [-8.0512349, 41.1289164], [-8.0516211, 41.1287143], [-8.0521522, 41.128686], [-8.0530212, 41.1287709], [-8.0533753, 41.1288315], [-8.053547, 41.1289042], [-8.0537132, 41.1288962], [-8.0537883, 41.1287951], [-8.0538527, 41.1287022], [-8.0539815, 41.1286658], [-8.054475, 41.1286618], [-8.0545584, 41.1286266], [-8.0546949, 41.1285689], [-8.0550168, 41.1283992], [-8.0551187, 41.1282214], [-8.0551241, 41.1278577], [-8.0552314, 41.1268313], [-8.0552528, 41.1261121], [-8.055446, 41.1258454], [-8.0556981, 41.1256393], [-8.0559395, 41.1255221], [-8.0560897, 41.1255464], [-8.0563418, 41.1257363], [-8.0566798, 41.1259181], [-8.0570285, 41.1260191], [-8.0577151, 41.1261202], [-8.0582945, 41.126104], [-8.0585841, 41.1259949], [-8.0587665, 41.1257242], [-8.0589355, 41.1254215], [-8.0590562, 41.1249928], [-8.0589918, 41.124617], [-8.0590079, 41.1242048], [-8.0591125, 41.1240355], [-8.0593191, 41.123926], [-8.0596168, 41.1237607], [-8.0599252, 41.1236956], [-8.060231, 41.123631], [-8.0604402, 41.1234976], [-8.0605314, 41.1232188], [-8.0605958, 41.1229198], [-8.0605797, 41.1227541], [-8.0604617, 41.1225803], [-8.0602793, 41.1224995], [-8.0600647, 41.122354], [-8.0599789, 41.1221237], [-8.0598716, 41.1217923], [-8.0598287, 41.1215175], [-8.0598501, 41.1212468], [-8.0601023, 41.1210043], [-8.0603437, 41.1207578], [-8.0603598, 41.1205961], [-8.0602283, 41.120443], [-8.0598743, 41.1203541], [-8.0596141, 41.1203456], [-8.0592681, 41.120249], [-8.0592064, 41.1201193], [-8.059201, 41.1199576], [-8.0591581, 41.1198], [-8.0588416, 41.1196384], [-8.0584393, 41.1195899], [-8.0579672, 41.1195818], [-8.0576078, 41.1198687], [-8.0572564, 41.1199499], [-8.0567978, 41.1198768], [-8.0565376, 41.1197843], [-8.0564384, 41.1196384], [-8.0563901, 41.1193514], [-8.0564571, 41.1191619], [-8.0565886, 41.1188584], [-8.0565564, 41.1185432], [-8.0565671, 41.1182239], [-8.0566637, 41.1180542], [-8.0568085, 41.1180097], [-8.0571948, 41.1180906], [-8.057463, 41.1180865], [-8.0579082, 41.1179532], [-8.0580745, 41.1177915], [-8.0581711, 41.1176056], [-8.0583749, 41.1173389], [-8.0585627, 41.1171974], [-8.0588309, 41.1169752], [-8.0590938, 41.1168135], [-8.0593513, 41.1167529], [-8.0593673, 41.1166559], [-8.0592654, 41.116571], [-8.0592171, 41.1164094], [-8.0592681, 41.1162643], [-8.0594371, 41.1161224], [-8.0596114, 41.1160218], [-8.0598394, 41.1158516], [-8.0598888, 41.1158342], [-8.0603222, 41.1156819], [-8.0605529, 41.1155], [-8.0608157, 41.115395], [-8.0610196, 41.1154273], [-8.06132, 41.1154313], [-8.0615077, 41.1154192], [-8.0617223, 41.1153141], [-8.0618913, 41.1150842], [-8.0621193, 41.1148898], [-8.0623929, 41.1148938], [-8.0625169, 41.1146271], [-8.0623259, 41.1142569], [-8.0621435, 41.1139578], [-8.0618731, 41.1137137], [-8.0615942, 41.1135116], [-8.0614032, 41.1131818], [-8.0613903, 41.1128569], [-8.0617465, 41.112713], [-8.0621092, 41.112671], [-8.062401, 41.1127777], [-8.0627014, 41.1129312], [-8.0629782, 41.1129215], [-8.063225, 41.1127518], [-8.0633966, 41.112388], [-8.0636455, 41.1123088], [-8.063976, 41.1124608], [-8.0644266, 41.1124608], [-8.0648236, 41.112291], [-8.0649201, 41.1120485], [-8.0648901, 41.1117511], [-8.0647452, 41.1114863], [-8.0645067, 41.1112018], [-8.0643618, 41.1109128], [-8.0642814, 41.1106117], [-8.0642706, 41.1103328], [-8.0643618, 41.1100984], [-8.0644691, 41.1100499], [-8.0646703, 41.1101045], [-8.0650243, 41.1102378], [-8.0654937, 41.1103247], [-8.0657619, 41.1103288], [-8.0660677, 41.11025], [-8.0662234, 41.1101247], [-8.0665131, 41.1100681], [-8.0668296, 41.1101368], [-8.0671675, 41.1100236], [-8.0673017, 41.1098539], [-8.0674948, 41.1097649], [-8.0677415, 41.1095548], [-8.0680205, 41.1092355], [-8.0681653, 41.1089889], [-8.0680819, 41.1087076], [-8.0678834, 41.1084166], [-8.0677039, 41.1083119], [-8.0674517, 41.1081058], [-8.0671244, 41.1079295], [-8.0669233, 41.1077723], [-8.0667141, 41.1075662], [-8.0666013, 41.1075314], [-8.0663547, 41.1075399], [-8.0660865, 41.1074873], [-8.0658451, 41.1073863], [-8.0656494, 41.1072185], [-8.065628, 41.1070488], [-8.0657889, 41.1068588], [-8.0659659, 41.1067578], [-8.0660893, 41.106588], [-8.0661161, 41.1062444], [-8.0661215, 41.1057553], [-8.0662449, 41.105339], [-8.0666043, 41.1049227], [-8.0670603, 41.1044861], [-8.0673929, 41.1042961], [-8.0674435, 41.1041482], [-8.0674562, 41.1040007], [-8.0675461, 41.1038869], [-8.0678811, 41.1034591], [-8.0680701, 41.1031418], [-8.0683227, 41.1029305], [-8.0683851, 41.1028943], [-8.0687179, 41.1028126], [-8.0688974, 41.1028126], [-8.0690584, 41.102847], [-8.0691952, 41.1029642], [-8.0692138, 41.1031356], [-8.069112, 41.1032775], [-8.0691253, 41.1033943], [-8.0692193, 41.1034816], [-8.0693695, 41.1034735], [-8.0695786, 41.1033438], [-8.0697368, 41.1032852], [-8.069863, 41.1031481], [-8.0701205, 41.1030754], [-8.0703673, 41.1030875], [-8.070555, 41.1030592], [-8.0709815, 41.1030451], [-8.0713034, 41.1029986], [-8.0716789, 41.10294], [-8.0721617, 41.1028814], [-8.0727625, 41.1026954], [-8.0732748, 41.102562], [-8.0735512, 41.1023397], [-8.0737121, 41.1018384], [-8.0737711, 41.1014625], [-8.0740555, 41.1011755], [-8.0744846, 41.1010381], [-8.075123, 41.1011512], [-8.0755039, 41.1014625], [-8.0756004, 41.1020608], [-8.0759276, 41.1024044], [-8.0762978, 41.1024529], [-8.0765283, 41.1024023], [-8.0767428, 41.1022888], [-8.0769119, 41.1022669], [-8.0770968, 41.102313], [-8.0773248, 41.1023312], [-8.077569, 41.1022568], [-8.0777031, 41.1019617], [-8.0777702, 41.101513], [-8.0776683, 41.1012139], [-8.0777353, 41.1008946], [-8.0778587, 41.1005732], [-8.0781163, 41.0998819], [-8.0784006, 41.0992513], [-8.0785294, 41.0985964], [-8.0787279, 41.0983337], [-8.0789478, 41.0981073], [-8.0793928, 41.0981073], [-8.0798783, 41.0983191], [-8.0804093, 41.0986021], [-8.0810343, 41.0988875], [-8.0814044, 41.0989683], [-8.082024, 41.0990306], [-8.0823379, 41.0989724], [-8.0824876, 41.0989011], [-8.082759, 41.0987719], [-8.0853174, 41.097902], [-8.0870034, 41.0973287]]}, "properties": {}}, {"type": "Feature", "geometry": {"type": "LineString", "coordinates": [[-7.911855573395303, 41.120216371380316], [-7.9142255, 41.1202171], [-7.9203694, 41.1202191], [-7.9279225, 41.1185379], [-7.9303173, 41.118244], [-7.9322053, 41.1187362], [-7.9336835, 41.1191216], [-7.936147632964349, 41.12003046979949]]}, "properties": {}}, {"type": "Feature", "geometry": {"type": "LineString", "coordinates": [[-7.940812831641385, 41.121751179780446], [-7.9433034, 41.1226698], [-7.9473574, 41.1228301], [-7.9505417, 41.1231814], [-7.953899, 41.121897], [-7.9552411633560585, 41.12034463194683]]}, "properties": {}}, {"type": "Feature", "geometry": {"type": "LineString", "coordinates": [[-7.956515602284599, 41.11887059507237], [-7.9597498169519385, 41.11512984957817]]}, "properties": {}}, {"type": "Feature", "geometry": {"type": "LineString", "coordinates": [[-7.9679087876919095, 41.11559011415671], [-7.968529, 41.1161679], [-7.9696747, 41.1163593], [-7.9709698, 41.1162693], [-7.9721738, 41.1157315], [-7.9731561, 41.115005], [-7.9737101, 41.1145952], [-7.975019921721046, 41.11362633361631]]}, "properties": {}}, {"type": "Feature", "geometry": {"type": "LineString", "coordinates": [[-7.977576934501472, 41.11198418589537], [-7.979195819651799, 41.11145976181439]]}, "properties": {}}, {"type": "Feature", "geometry": {"type": "LineString", "coordinates": [[-7.985466640790869, 41.11037438370777], [-7.9868525, 41.1101759], [-7.987209496195535, 41.110124769963996]]}, "properties": {}}, {"type": "Feature", "geometry": {"type": "LineString", "coordinates": [[-7.9904488380353875, 41.109660821980846], [-7.9912268, 41.1095494], [-7.9914578, 41.1094336], [-7.9981477, 41.1060798], [-7.9988832, 41.1058512], [-8.000637552532492, 41.10530603904948]]}, "properties": {}}, {"type": "Feature", "geometry": {"type": "LineString", "coordinates": [[-8.003067601259906, 41.10507419099708], [-8.01073093494102, 41.1046543309718]]}, "properties": {}}, {"type": "Feature", "geometry": {"type": "LineString", "coordinates": [[-8.01287803264264, 41.10453669541881], [-8.0146119, 41.1044417], [-8.015046419371203, 41.10403218022258]]}, "properties": {}}, {"type": "Feature", "geometry": {"type": "LineString", "coordinates": [[-8.020903793436457, 41.09924265184861], [-8.0262476, 41.0968285], [-8.0270168, 41.0969037], [-8.0295879, 41.097155], [-8.0383837, 41.0955035], [-8.0443072, 41.09304], [-8.0461136, 41.091962], [-8.047099698962464, 41.091373482930855]]}, "properties": {}}, {"type": "Feature", "geometry": {"type": "LineString", "coordinates": [[-8.048917649237566, 41.09062617765036], [-8.052850574437107, 41.08967314866276]]}, "properties": {}}, {"type": "Feature", "geometry": {"type": "LineString", "coordinates": [[-8.055735702381083, 41.08959462040921], [-8.058751727956958, 41.08993658785308]]}, "properties": {}}, {"type": "Feature", "geometry": {"type": "LineString", "coordinates": [[-8.06520896831074, 41.09209436832077], [-8.0677524, 41.0930219], [-8.0780903, 41.0924293], [-8.078684401896465, 41.092239313510284]]}, "properties": {}}, {"type": "Feature", "geometry": {"type": "LineString", "coordinates": [[-8.082150850330498, 41.09181467422631], [-8.083428986550658, 41.092551479071936]]}, "properties": {}}, {"type": "Feature", "geometry": {"type": "LineString", "coordinates": [[-8.08548505976565, 41.09492493603334], [-8.0860735, 41.0958565], [-8.0870034, 41.0973287], [-8.090734158891058, 41.099093770780534]]}, "properties": {}}, {"type": "Feature", "geometry": {"type": "LineString", "coordinates": [[-8.094041946025431, 41.100658728096086], [-8.0950482, 41.1011348], [-8.0968635, 41.1011348], [-8.09691987810312, 41.10111821527656]]}, "properties": {}}, {"type": "Feature", "geometry": {"type": "LineString", "coordinates": [[-7.8943359, 41.2292034], [-7.893942, 41.2290495], [-7.8939046, 41.2289055], [-7.893942, 41.2287475], [-7.8941054, 41.2285051], [-7.8941148, 41.2283857], [-7.8940307, 41.2281995], [-7.893928, 41.2280345], [-7.8938953, 41.2278694], [-7.8938346, 41.2277043], [-7.8938205, 41.2275498], [-7.8937412, 41.2273671], [-7.8936011, 41.2272407], [-7.8934236, 41.2271459], [-7.8931668, 41.2269983], [-7.8932135, 41.2268578], [-7.8931621, 41.2264715], [-7.8931481, 41.2261589], [-7.8929426, 41.2258674], [-7.8928819, 41.2256847], [-7.8929473, 41.2255477], [-7.8928819, 41.2253616], [-7.8928912, 41.2252351], [-7.893022, 41.2252035], [-7.8933722, 41.225193], [-7.8936197, 41.2252105], [-7.8938672, 41.2251789], [-7.8942502, 41.2251614], [-7.8944557, 41.2250349], [-7.894507, 41.2248136], [-7.8946144, 41.224624], [-7.8947732, 41.224494], [-7.8950581, 41.2242165], [-7.8952916, 41.2240023], [-7.8954691, 41.2239355], [-7.8956185, 41.2237669], [-7.8957633, 41.2236299], [-7.8960014, 41.223507], [-7.8962303, 41.2234789], [-7.8964124, 41.2234297], [-7.8966132, 41.223363], [-7.8967393, 41.2232611], [-7.8969249, 41.2229824], [-7.8969579, 41.2228691], [-7.8970071, 41.2227824], [-7.8970511, 41.2227145], [-7.8972078, 41.2225778], [-7.8972763, 41.2224462], [-7.8972604, 41.2223585], [-7.8973277, 41.2222319], [-7.8973511, 41.2220651], [-7.8973674, 41.2217894], [-7.8974553, 41.2215945], [-7.8976032, 41.2213503], [-7.8977667, 41.2212379], [-7.8979161, 41.2210552], [-7.8980282, 41.2209147], [-7.8981963, 41.2208304], [-7.8982944, 41.2207004], [-7.8983411, 41.2205424], [-7.8983691, 41.2202543], [-7.8984999, 41.2198925], [-7.8985628, 41.2197116], [-7.8986201, 41.2195616], [-7.8987226, 41.2194557], [-7.8990473, 41.2194177], [-7.8992341, 41.2194388], [-7.8994349, 41.2195055], [-7.8996077, 41.2196109], [-7.8997197, 41.2198744], [-7.8997524, 41.2201659], [-7.8997384, 41.2204505], [-7.8998405, 41.2206059], [-7.8999424, 41.2206845], [-7.9000963, 41.2207211], [-7.9002932, 41.2206723], [-7.9004846, 41.2206056], [-7.900975, 41.2205599], [-7.9011898, 41.220581], [-7.9014373, 41.2205494], [-7.9016148, 41.220437], [-7.9017409, 41.220293], [-7.9017782, 41.2200892], [-7.9018389, 41.2198363], [-7.9018156, 41.219745], [-7.9018249, 41.2194288], [-7.9020304, 41.2193059], [-7.9021938, 41.2192848], [-7.9024414, 41.219327], [-7.9027589, 41.2194569], [-7.9030251, 41.219485], [-7.9032866, 41.2194956], [-7.9036042, 41.2194464], [-7.9038237, 41.2193726], [-7.9040945, 41.2192813], [-7.9041833, 41.2192005], [-7.9043607, 41.2191162], [-7.9044822, 41.2189511], [-7.9045382, 41.2188282], [-7.9045709, 41.2185963], [-7.9046456, 41.2184804], [-7.9048231, 41.218375], [-7.9049818, 41.2182415], [-7.9050379, 41.2181115], [-7.9050192, 41.2178692], [-7.9050846, 41.2176584], [-7.9052527, 41.2174828], [-7.9053379, 41.2174302], [-7.9053835, 41.217402], [-7.905617, 41.2172228], [-7.9057711, 41.2170858], [-7.9058038, 41.2169558], [-7.9057104, 41.2167872], [-7.9055656, 41.2166045], [-7.9051191, 41.2163775], [-7.9047185, 41.2162662], [-7.9045953, 41.216104], [-7.9046199, 41.2158073], [-7.9048294, 41.2154782], [-7.9050354, 41.2152361], [-7.9052917, 41.2149294], [-7.9056792, 41.2145211], [-7.9059604, 41.2143745], [-7.9061255, 41.2143815], [-7.9064501, 41.2144121], [-7.9069061, 41.214426], [-7.9072075, 41.2144146], [-7.9074495, 41.2143516], [-7.9076725, 41.2142494], [-7.9077626, 41.2142081], [-7.9081816, 41.2140273], [-7.9084404, 41.2138465], [-7.9085267, 41.2136982], [-7.9085883, 41.213383], [-7.9087855, 41.2130261], [-7.908958, 41.2126923], [-7.9092477, 41.2125949], [-7.9094325, 41.2124605], [-7.9094942, 41.2122473], [-7.9093401, 41.2120989], [-7.9090443, 41.2119877], [-7.908767, 41.2118579], [-7.9087362, 41.2117142], [-7.9087936, 41.2115766], [-7.9090813, 41.2115334], [-7.9093463, 41.2114639], [-7.9093832, 41.211297], [-7.9091984, 41.2110745], [-7.9088779, 41.2109447], [-7.9087976, 41.2105231], [-7.908744, 41.2101841], [-7.9086045, 41.2100227], [-7.9090229, 41.2097402], [-7.9090658, 41.2095142], [-7.9090551, 41.2092962], [-7.9093367, 41.208925], [-7.9095942, 41.2086183], [-7.9096157, 41.2084568], [-7.909495, 41.2081743], [-7.9092831, 41.2080552], [-7.9092616, 41.2078515], [-7.9093662, 41.2077001], [-7.9100288, 41.2072481], [-7.9104498, 41.2071735], [-7.9110077, 41.2070766], [-7.9112652, 41.2069313], [-7.9113725, 41.2066811], [-7.9113725, 41.2063259], [-7.911276, 41.2061564], [-7.9113296, 41.2058114], [-7.9125312, 41.2051071], [-7.9130248, 41.2048165], [-7.9132179, 41.2045501], [-7.9131486, 41.2044704], [-7.9130355, 41.2043402], [-7.9130033, 41.2041384], [-7.9130569, 41.2038882], [-7.9127244, 41.203307], [-7.9126922, 41.2031778], [-7.9130462, 41.2028146], [-7.9131106, 41.2024352], [-7.9132715, 41.202193], [-7.913647, 41.201967], [-7.9141298, 41.2018056], [-7.914441, 41.2014665], [-7.9146831, 41.2010168], [-7.9151015, 41.2006374], [-7.915595, 41.2004114], [-7.9160074, 41.2004817], [-7.9163292, 41.2006996], [-7.9167369, 41.2008611], [-7.917091, 41.2008853], [-7.9176703, 41.200522], [-7.9183248, 41.2000781], [-7.9185394, 41.1997309], [-7.9184146, 41.1991548], [-7.9186832, 41.1986997], [-7.9195171, 41.1979896], [-7.9201951, 41.1976729], [-7.9206637, 41.1974867], [-7.9209963, 41.1970589], [-7.9212947, 41.1965561], [-7.9212518, 41.1961686], [-7.9210694, 41.1958134], [-7.9212216, 41.1954443], [-7.9214576, 41.195089], [-7.9216722, 41.1949114], [-7.9221183, 41.1947729], [-7.9224187, 41.1944581], [-7.9226762, 41.1943127], [-7.9230991, 41.1943544], [-7.9232493, 41.1941929], [-7.9232386, 41.1939507], [-7.9228631, 41.1937893], [-7.9226485, 41.1936439], [-7.9225091, 41.1932968], [-7.9225198, 41.1928608], [-7.9225434, 41.192739], [-7.9226212, 41.1924407], [-7.9226637, 41.1921318], [-7.9226425, 41.1919294], [-7.9225575, 41.1918175], [-7.9223169, 41.1915885], [-7.9222036, 41.1913914], [-7.9223239, 41.1911623], [-7.9223529, 41.1911276], [-7.9225858, 41.1908481], [-7.922692, 41.1906616], [-7.9227298, 41.1904655], [-7.9227203, 41.190342], [-7.9226705, 41.1901844], [-7.9225717, 41.1900597], [-7.9221611, 41.1899159], [-7.9219346, 41.18982], [-7.9218285, 41.1897188], [-7.9218285, 41.1894578], [-7.9219346, 41.1891648], [-7.9218709, 41.1887334], [-7.9219063, 41.1885522], [-7.9222486, 41.1879938], [-7.9225852, 41.1876521], [-7.9228973, 41.1872045], [-7.9230105, 41.186821], [-7.9230318, 41.1864907], [-7.9229185, 41.186235], [-7.9227416, 41.1860379], [-7.9227911, 41.1858515], [-7.9229327, 41.1857077], [-7.9229752, 41.1855159], [-7.9226212, 41.1852708], [-7.9223027, 41.1850737], [-7.9221541, 41.1848393], [-7.9221753, 41.1846422], [-7.9223947, 41.1843439], [-7.9226, 41.1841095], [-7.9228619, 41.1838964], [-7.9231167, 41.183678], [-7.9232158, 41.1834916], [-7.9231804, 41.1830707], [-7.9231804, 41.1826658], [-7.9231946, 41.1823515], [-7.9229752, 41.1820532], [-7.9227062, 41.1817229], [-7.9225646, 41.1814352], [-7.9224443, 41.1811529], [-7.9222111, 41.1808458], [-7.9221611, 41.18078], [-7.92197, 41.180471], [-7.9219134, 41.1802632], [-7.9219063, 41.1800235], [-7.9218551, 41.1798854], [-7.9218045, 41.1798113], [-7.9217131, 41.1797762], [-7.9213471, 41.1797145], [-7.9210357, 41.1796452], [-7.9206888, 41.1796452], [-7.9202419, 41.1798412], [-7.9199624, 41.1801438], [-7.9194643, 41.1804603], [-7.9191953, 41.180439], [-7.9189263, 41.1802792], [-7.918721, 41.1800021], [-7.918629, 41.1796399], [-7.9184591, 41.1794001], [-7.9184238, 41.179171], [-7.9182114, 41.1789739], [-7.9178504, 41.178862], [-7.9173195, 41.1786649], [-7.9168523, 41.1785424], [-7.9166329, 41.1783026], [-7.9166188, 41.1779563], [-7.916463, 41.1776473], [-7.9161445, 41.1774182], [-7.91538, 41.1770986], [-7.9146864, 41.1768109], [-7.9141122, 41.1767255], [-7.9137166, 41.1766084], [-7.9132531, 41.1764773], [-7.9126624, 41.1764999], [-7.9122161, 41.1766226], [-7.911846, 41.1768132], [-7.9118196, 41.1771838], [-7.9119541, 41.1780149], [-7.9118975, 41.1781641], [-7.9116285, 41.178244], [-7.9106446, 41.1782387], [-7.9102907, 41.1782387], [-7.9098377, 41.1782973], [-7.9093846, 41.178324], [-7.9088255, 41.1782813], [-7.9085211, 41.1781748], [-7.9082167, 41.1778977], [-7.9080964, 41.17761], [-7.9080964, 41.1772371], [-7.9082733, 41.1768642], [-7.908153, 41.1766457], [-7.9079194, 41.1765445], [-7.9074169, 41.176406], [-7.906886, 41.1762248], [-7.9065391, 41.1760756], [-7.9064896, 41.1759158], [-7.9063268, 41.1755642], [-7.9059092, 41.1753138], [-7.9048262, 41.175074], [-7.9041183, 41.1752871], [-7.9036817, 41.1753606], [-7.9033043, 41.1753138], [-7.9032123, 41.175074], [-7.9032548, 41.174765], [-7.9030353, 41.1746105], [-7.9026319, 41.1745199], [-7.9021505, 41.1745359], [-7.9017895, 41.1744133], [-7.9014002, 41.1742002], [-7.9011242, 41.1739445], [-7.9010463, 41.1737314], [-7.9010463, 41.1734223], [-7.9010321, 41.1731772], [-7.9008056, 41.1731826], [-7.9000836, 41.1734809], [-7.89985, 41.1735182], [-7.8993404, 41.1731293], [-7.898938575800371, 41.17287015604006]]}, "properties": {}}, {"type": "Feature", "geometry": {"type": "LineString", "coordinates": [[-7.898857681668259, 41.17280338355168], [-7.898674343071797, 41.17264712691897]]}, "properties": {}}, {"type": "Feature", "geometry": {"type": "LineString", "coordinates": [[-7.898635441568193, 41.17257312845979], [-7.898629552133781, 41.17241375894547]]}, "properties": {}}, {"type": "Feature", "geometry": {"type": "LineString", "coordinates": [[-7.898640827706075, 41.17236689608466], [-7.8987254, 41.1722009], [-7.898724352989268, 41.17214943539552]]}, "properties": {}}, {"type": "Feature", "geometry": {"type": "LineString", "coordinates": [[-7.897990033201158, 41.171221965660116], [-7.8979882, 41.1712218], [-7.897541327015527, 41.17138606516973]]}, "properties": {}}, {"type": "Feature", "geometry": {"type": "LineString", "coordinates": [[-7.897535316325688, 41.17138459934037], [-7.896850785026308, 41.171048913861505]]}, "properties": {}}, {"type": "Feature", "geometry": {"type": "LineString", "coordinates": [[-7.8963321809503775, 41.170161359120165], [-7.896152101014725, 41.16954817389]]}, "properties": {}}, {"type": "Feature", "geometry": {"type": "LineString", "coordinates": [[-7.895415752472038, 41.16831727503432], [-7.8954164621749126, 41.16811811466496]]}, "properties": {}}, {"type": "Feature", "geometry": {"type": "LineString", "coordinates": [[-7.8954226560612115, 41.16810435970691], [-7.895683889269901, 41.16797110098663]]}, "properties": {}}, {"type": "Feature", "geometry": {"type": "LineString", "coordinates": [[-7.895689641437452, 41.16796913516854], [-7.8965766, 41.1682086], [-7.8966936268451215, 41.168226669724525]]}, "properties": {}}, {"type": "Feature", "geometry": {"type": "LineString", "coordinates": [[-7.897088576830087, 41.168287652633374], [-7.897153, 41.1682976], [-7.897204138370701, 41.16829025093914]]}, "properties": {}}, {"type": "Feature", "geometry": {"type": "LineString", "coordinates": [[-7.897676301789474, 41.16822239665173], [-7.8978906, 41.1681916], [-7.897940963359751, 41.16816744407989]]}, "properties": {}}, {"type": "Feature", "geometry": {"type": "LineString", "coordinates": [[-7.8975319, 41.1671202], [-7.8973863, 41.1671108]]}, "properties": {}}, {"type": "Feature", "geometry": {"type": "LineString", "coordinates": [[-7.8973863, 41.1671108], [-7.8972609, 41.1670954]]}, "properties": {}}, {"type": "Feature", "geometry": {"type": "LineString", "coordinates": [[-7.8972609, 41.1670954], [-7.8971211, 41.1670548]]}, "properties": {}}, {"type": "Feature", "geometry": {"type": "LineString", "coordinates": [[-7.8971211, 41.1670548], [-7.8968034, 41.1668951]]}, "properties": {}}, {"type": "Feature", "geometry": {"type": "LineString", "coordinates": [[-7.8968034, 41.1668951], [-7.8963908, 41.1666559]]}, "properties": {}}, {"type": "Feature", "geometry": {"type": "LineString", "coordinates": [[-7.8963908, 41.1666559], [-7.8947105, 41.165607]]}, "properties": {}}, {"type": "Feature", "geometry": {"type": "LineString", "coordinates": [[-7.8947105, 41.165607], [-7.8941601, 41.1653351]]}, "properties": {}}, {"type": "Feature", "geometry": {"type": "LineString", "coordinates": [[-7.8941601, 41.1653351], [-7.8940603, 41.1652259]]}, "properties": {}}, {"type": "Feature", "geometry": {"type": "LineString", "coordinates": [[-7.8940603, 41.1652259], [-7.8939986, 41.1651088]]}, "properties": {}}, {"type": "Feature", "geometry": {"type": "LineString", "coordinates": [[-7.8939986, 41.1651088], [-7.8939791, 41.1648896]]}, "properties": {}}, {"type": "Feature", "geometry": {"type": "LineString", "coordinates": [[-7.8939791, 41.1648896], [-7.8939671, 41.1645643]]}, "properties": {}}, {"type": "Feature", "geometry": {"type": "LineString", "coordinates": [[-7.8939671, 41.1645643], [-7.8939356, 41.1642992]]}, "properties": {}}, {"type": "Feature", "geometry": {"type": "LineString", "coordinates": [[-7.8939356, 41.1642992], [-7.8938278, 41.1641171]]}, "properties": {}}, {"type": "Feature", "geometry": {"type": "LineString", "coordinates": [[-7.8938278, 41.1641171], [-7.8936813, 41.163963]]}, "properties": {}}, {"type": "Feature", "geometry": {"type": "LineString", "coordinates": [[-7.8936813, 41.163963], [-7.8935296, 41.1638837]]}, "properties": {}}, {"type": "Feature", "geometry": {"type": "LineString", "coordinates": [[-7.8935296, 41.1638837], [-7.8933268, 41.1638354]]}, "properties": {}}, {"type": "Feature", "geometry": {"type": "LineString", "coordinates": [[-7.8933268, 41.1638354], [-7.8930692, 41.1638345]]}, "properties": {}}, {"type": "Feature", "geometry": {"type": "LineString", "coordinates": [[-7.8930692, 41.1638345], [-7.8928765, 41.1638825]]}, "properties": {}}, {"type": "Feature", "geometry": {"type": "LineString", "coordinates": [[-7.8928765, 41.1638825], [-7.8925804, 41.1640825]]}, "properties": {}}, {"type": "Feature", "geometry": {"type": "LineString", "coordinates": [[-7.8925804, 41.1640825], [-7.8924463, 41.164169]]}, "properties": {}}, {"type": "Feature", "geometry": {"type": "LineString", "coordinates": [[-7.8924463, 41.164169], [-7.8923729, 41.1641892]]}, "properties": {}}, {"type": "Feature", "geometry": {"type": "LineString", "coordinates": [[-7.8923729, 41.1641892], [-7.8923067, 41.1641755]]}, "properties": {}}, {"type": "Feature", "geometry": {"type": "LineString", "coordinates": [[-7.8923067, 41.1641755], [-7.8922357, 41.1641629]]}, "properties": {}}, {"type": "Feature", "geometry": {"type": "LineString", "coordinates": [[-7.8922357, 41.1641629], [-7.8921269, 41.1641078]]}, "properties": {}}, {"type": "Feature", "geometry": {"type": "LineString", "coordinates": [[-7.8921269, 41.1641078], [-7.8919158, 41.1639726]]}, "properties": {}}, {"type": "Feature", "geometry": {"type": "LineString", "coordinates": [[-7.8919158, 41.1639726], [-7.8910434, 41.1635866]]}, "properties": {}}, {"type": "Feature", "geometry": {"type": "LineString", "coordinates": [[-7.8910434, 41.1635866], [-7.8906712, 41.1634616], [-7.8905503, 41.1634398]]}, "properties": {}}, {"type": "Feature", "geometry": {"type": "LineString", "coordinates": [[-7.8905503, 41.1634398], [-7.8901862, 41.1633966]]}, "properties": {}}, {"type": "Feature", "geometry": {"type": "LineString", "coordinates": [[-7.8901862, 41.1633966], [-7.8899009, 41.1633835]]}, "properties": {}}, {"type": "Feature", "geometry": {"type": "LineString", "coordinates": [[-7.8899009, 41.1633835], [-7.8897264, 41.1633622]]}, "properties": {}}, {"type": "Feature", "geometry": {"type": "LineString", "coordinates": [[-7.8897264, 41.1633622], [-7.8895705, 41.1633139]]}, "properties": {}}, {"type": "Feature", "geometry": {"type": "LineString", "coordinates": [[-7.8895705, 41.1633139], [-7.8894997, 41.163278]]}, "properties": {}}, {"type": "Feature", "geometry": {"type": "LineString", "coordinates": [[-7.8894997, 41.163278], [-7.8894693, 41.163255]]}, "properties": {}}, {"type": "Feature", "geometry": {"type": "LineString", "coordinates": [[-7.8894693, 41.163255], [-7.8894499, 41.1632277]]}, "properties": {}}, {"type": "Feature", "geometry": {"type": "LineString", "coordinates": [[-7.8894499, 41.1632277], [-7.8894369, 41.1631977]]}, "properties": {}}, {"type": "Feature", "geometry": {"type": "LineString", "coordinates": [[-7.8894369, 41.1631977], [-7.889433, 41.1631649]]}, "properties": {}}, {"type": "Feature", "geometry": {"type": "LineString", "coordinates": [[-7.889433, 41.1631649], [-7.8894448, 41.1631331]]}, "properties": {}}, {"type": "Feature", "geometry": {"type": "LineString", "coordinates": [[-7.8894448, 41.1631331], [-7.8894781, 41.163044]]}, "properties": {}}, {"type": "Feature", "geometry": {"type": "LineString", "coordinates": [[-7.8894781, 41.163044], [-7.8895122, 41.1629756]]}, "properties": {}}, {"type": "Feature", "geometry": {"type": "LineString", "coordinates": [[-7.8895122, 41.1629756], [-7.8895686, 41.1629102]]}, "properties": {}}, {"type": "Feature", "geometry": {"type": "LineString", "coordinates": [[-7.8895686, 41.1629102], [-7.8897785, 41.1628001]]}, "properties": {}}, {"type": "Feature", "geometry": {"type": "LineString", "coordinates": [[-7.8897785, 41.1628001], [-7.8901481, 41.1626147]]}, "properties": {}}, {"type": "Feature", "geometry": {"type": "LineString", "coordinates": [[-7.8901481, 41.1626147], [-7.8903501, 41.1625082]]}, "properties": {}}, {"type": "Feature", "geometry": {"type": "LineString", "coordinates": [[-7.8903501, 41.1625082], [-7.8905884, 41.1623539]]}, "properties": {}}, {"type": "Feature", "geometry": {"type": "LineString", "coordinates": [[-7.8905884, 41.1623539], [-7.8907435, 41.1622633]]}, "properties": {}}, {"type": "Feature", "geometry": {"type": "LineString", "coordinates": [[-7.8907435, 41.1622633], [-7.8909025, 41.1621632]]}, "properties": {}}, {"type": "Feature", "geometry": {"type": "LineString", "coordinates": [[-7.8909025, 41.1621632], [-7.8911399, 41.1619311]]}, "properties": {}}, {"type": "Feature", "geometry": {"type": "LineString", "coordinates": [[-7.8911399, 41.1619311], [-7.891303, 41.1616864]]}, "properties": {}}, {"type": "Feature", "geometry": {"type": "LineString", "coordinates": [[-7.891303, 41.1616864], [-7.8914299, 41.1615299]]}, "properties": {}}, {"type": "Feature", "geometry": {"type": "LineString", "coordinates": [[-7.8914299, 41.1615299], [-7.8915075, 41.1614601]]}, "properties": {}}, {"type": "Feature", "geometry": {"type": "LineString", "coordinates": [[-7.8915075, 41.1614601], [-7.8916231, 41.1614169]]}, "properties": {}}, {"type": "Feature", "geometry": {"type": "LineString", "coordinates": [[-7.8916231, 41.1614169], [-7.8917748, 41.1614152]]}, "properties": {}}, {"type": "Feature", "geometry": {"type": "LineString", "coordinates": [[-7.8917748, 41.1614152], [-7.8919014, 41.1614719]]}, "properties": {}}, {"type": "Feature", "geometry": {"type": "LineString", "coordinates": [[-7.8919014, 41.1614719], [-7.8921354, 41.1617115]]}, "properties": {}}, {"type": "Feature", "geometry": {"type": "LineString", "coordinates": [[-7.8921354, 41.1617115], [-7.8923141, 41.161933]]}, "properties": {}}, {"type": "Feature", "geometry": {"type": "LineString", "coordinates": [[-7.8923141, 41.161933], [-7.8923981, 41.1620077]]}, "properties": {}}, {"type": "Feature", "geometry": {"type": "LineString", "coordinates": [[-7.8923981, 41.1620077], [-7.8925069, 41.1620453]]}, "properties": {}}, {"type": "Feature", "geometry": {"type": "LineString", "coordinates": [[-7.8925069, 41.1620453], [-7.8926334, 41.1620383]]}, "properties": {}}, {"type": "Feature", "geometry": {"type": "LineString", "coordinates": [[-7.8926334, 41.1620383], [-7.8927665, 41.1619956]]}, "properties": {}}, {"type": "Feature", "geometry": {"type": "LineString", "coordinates": [[-7.8927665, 41.1619956], [-7.892977, 41.1617915]]}, "properties": {}}, {"type": "Feature", "geometry": {"type": "LineString", "coordinates": [[-7.892977, 41.1617915], [-7.893064, 41.1616352]]}, "properties": {}}, {"type": "Feature", "geometry": {"type": "LineString", "coordinates": [[-7.893064, 41.1616352], [-7.8931624, 41.1613027]]}, "properties": {}}, {"type": "Feature", "geometry": {"type": "LineString", "coordinates": [[-7.8931624, 41.1613027], [-7.8932043, 41.1608248]]}, "properties": {}}, {"type": "Feature", "geometry": {"type": "LineString", "coordinates": [[-7.8932043, 41.1608248], [-7.8932367, 41.1605582]]}, "properties": {}}, {"type": "Feature", "geometry": {"type": "LineString", "coordinates": [[-7.8932367, 41.1605582], [-7.8932118, 41.1603457]]}, "properties": {}}, {"type": "Feature", "geometry": {"type": "LineString", "coordinates": [[-7.8932118, 41.1603457], [-7.8931546, 41.1600896]]}, "properties": {}}, {"type": "Feature", "geometry": {"type": "LineString", "coordinates": [[-7.8931546, 41.1600896], [-7.8928029, 41.1597114]]}, "properties": {}}, {"type": "Feature", "geometry": {"type": "LineString", "coordinates": [[-7.8928029, 41.1597114], [-7.8927881, 41.1596561]]}, "properties": {}}, {"type": "Feature", "geometry": {"type": "LineString", "coordinates": [[-7.8927881, 41.1596561], [-7.8928225, 41.1595711]]}, "properties": {}}, {"type": "Feature", "geometry": {"type": "LineString", "coordinates": [[-7.8928225, 41.1595711], [-7.8929245, 41.1595147]]}, "properties": {}}, {"type": "Feature", "geometry": {"type": "LineString", "coordinates": [[-7.8929245, 41.1595147], [-7.8933078, 41.1594386]]}, "properties": {}}, {"type": "Feature", "geometry": {"type": "LineString", "coordinates": [[-7.8933078, 41.1594386], [-7.8938243, 41.1593165]]}, "properties": {}}, {"type": "Feature", "geometry": {"type": "LineString", "coordinates": [[-7.8938243, 41.1593165], [-7.8941354, 41.1592148]]}, "properties": {}}, {"type": "Feature", "geometry": {"type": "LineString", "coordinates": [[-7.8941354, 41.1592148], [-7.8944356, 41.1590887]]}, "properties": {}}, {"type": "Feature", "geometry": {"type": "LineString", "coordinates": [[-7.8944356, 41.1590887], [-7.8948378, 41.1589182]]}, "properties": {}}, {"type": "Feature", "geometry": {"type": "LineString", "coordinates": [[-7.8948378, 41.1589182], [-7.895115, 41.1587829]]}, "properties": {}}, {"type": "Feature", "geometry": {"type": "LineString", "coordinates": [[-7.895115, 41.1587829], [-7.8953834, 41.1586218]]}, "properties": {}}, {"type": "Feature", "geometry": {"type": "LineString", "coordinates": [[-7.8953834, 41.1586218], [-7.895585, 41.1584954]]}, "properties": {}}, {"type": "Feature", "geometry": {"type": "LineString", "coordinates": [[-7.895585, 41.1584954], [-7.8958575, 41.1583541]]}, "properties": {}}, {"type": "Feature", "geometry": {"type": "LineString", "coordinates": [[-7.8958575, 41.1583541], [-7.89624, 41.158228]]}, "properties": {}}, {"type": "Feature", "geometry": {"type": "LineString", "coordinates": [[-7.89624, 41.158228], [-7.8964348, 41.1581884]]}, "properties": {}}, {"type": "Feature", "geometry": {"type": "LineString", "coordinates": [[-7.8964348, 41.1581884], [-7.8966127, 41.1581799]]}, "properties": {}}, {"type": "Feature", "geometry": {"type": "LineString", "coordinates": [[-7.8966127, 41.1581799], [-7.8967815, 41.1582076]]}, "properties": {}}, {"type": "Feature", "geometry": {"type": "LineString", "coordinates": [[-7.8967815, 41.1582076], [-7.896974, 41.158265]]}, "properties": {}}, {"type": "Feature", "geometry": {"type": "LineString", "coordinates": [[-7.896974, 41.158265], [-7.8972023, 41.1583695]]}, "properties": {}}, {"type": "Feature", "geometry": {"type": "LineString", "coordinates": [[-7.8972023, 41.1583695], [-7.8973818, 41.1584889]]}, "properties": {}}, {"type": "Feature", "geometry": {"type": "LineString", "coordinates": [[-7.8973818, 41.1584889], [-7.8974552, 41.1585321]]}, "properties": {}}, {"type": "Feature", "geometry": {"type": "LineString", "coordinates": [[-7.8974552, 41.1585321], [-7.8975535, 41.1585741]]}, "properties": {}}, {"type": "Feature", "geometry": {"type": "LineString", "coordinates": [[-7.8975535, 41.1585741], [-7.8977073, 41.1585871]]}, "properties": {}}, {"type": "Feature", "geometry": {"type": "LineString", "coordinates": [[-7.8977073, 41.1585871], [-7.8978334, 41.1585894]]}, "properties": {}}, {"type": "Feature", "geometry": {"type": "LineString", "coordinates": [[-7.8978334, 41.1585894], [-7.8979714, 41.1585634]]}, "properties": {}}, {"type": "Feature", "geometry": {"type": "LineString", "coordinates": [[-7.8979714, 41.1585634], [-7.8980492, 41.1585262]]}, "properties": {}}, {"type": "Feature", "geometry": {"type": "LineString", "coordinates": [[-7.8980492, 41.1585262], [-7.8981011, 41.1584696]]}, "properties": {}}, {"type": "Feature", "geometry": {"type": "LineString", "coordinates": [[-7.8981011, 41.1584696], [-7.8981147, 41.1584064]]}, "properties": {}}, {"type": "Feature", "geometry": {"type": "LineString", "coordinates": [[-7.8981147, 41.1584064], [-7.8980894, 41.1583287]]}, "properties": {}}, {"type": "Feature", "geometry": {"type": "LineString", "coordinates": [[-7.8980894, 41.1583287], [-7.8979836, 41.1582326]]}, "properties": {}}, {"type": "Feature", "geometry": {"type": "LineString", "coordinates": [[-7.8979836, 41.1582326], [-7.8978745, 41.1581237]]}, "properties": {}}, {"type": "Feature", "geometry": {"type": "LineString", "coordinates": [[-7.8978745, 41.1581237], [-7.8978573, 41.1580832]]}, "properties": {}}, {"type": "Feature", "geometry": {"type": "LineString", "coordinates": [[-7.8978573, 41.1580832], [-7.8978517, 41.1580164]]}, "properties": {}}, {"type": "Feature", "geometry": {"type": "LineString", "coordinates": [[-7.8978517, 41.1580164], [-7.8978538, 41.157951]]}, "properties": {}}, {"type": "Feature", "geometry": {"type": "LineString", "coordinates": [[-7.8978538, 41.157951], [-7.8978986, 41.1578048]]}, "properties": {}}, {"type": "Feature", "geometry": {"type": "LineString", "coordinates": [[-7.8978986, 41.1578048], [-7.8979504, 41.1576799]]}, "properties": {}}, {"type": "Feature", "geometry": {"type": "LineString", "coordinates": [[-7.8979504, 41.1576799], [-7.8980157, 41.1575507]]}, "properties": {}}, {"type": "Feature", "geometry": {"type": "LineString", "coordinates": [[-7.8980157, 41.1575507], [-7.8984538, 41.157037]]}, "properties": {}}, {"type": "Feature", "geometry": {"type": "LineString", "coordinates": [[-7.8984538, 41.157037], [-7.8985838, 41.1569165]]}, "properties": {}}, {"type": "Feature", "geometry": {"type": "LineString", "coordinates": [[-7.8985838, 41.1569165], [-7.900111, 41.1560051]]}, "properties": {}}, {"type": "Feature", "geometry": {"type": "LineString", "coordinates": [[-7.900111, 41.1560051], [-7.9004622, 41.1558047]]}, "properties": {}}, {"type": "Feature", "geometry": {"type": "LineString", "coordinates": [[-7.9004622, 41.1558047], [-7.9006052, 41.1557544]]}, "properties": {}}, {"type": "Feature", "geometry": {"type": "LineString", "coordinates": [[-7.9006052, 41.1557544], [-7.900761, 41.1557429]]}, "properties": {}}, {"type": "Feature", "geometry": {"type": "LineString", "coordinates": [[-7.900761, 41.1557429], [-7.9009888, 41.1557638]]}, "properties": {}}, {"type": "Feature", "geometry": {"type": "LineString", "coordinates": [[-7.9009888, 41.1557638], [-7.9011657, 41.1558396]]}, "properties": {}}, {"type": "Feature", "geometry": {"type": "LineString", "coordinates": [[-7.9011657, 41.1558396], [-7.9014409, 41.1560453]]}, "properties": {}}, {"type": "Feature", "geometry": {"type": "LineString", "coordinates": [[-7.9014409, 41.1560453], [-7.9015226, 41.1560887]]}, "properties": {}}, {"type": "Feature", "geometry": {"type": "LineString", "coordinates": [[-7.9015226, 41.1560887], [-7.9016557, 41.1561155]]}, "properties": {}}, {"type": "Feature", "geometry": {"type": "LineString", "coordinates": [[-7.9016557, 41.1561155], [-7.9018829, 41.1561135]]}, "properties": {}}, {"type": "Feature", "geometry": {"type": "LineString", "coordinates": [[-7.9018829, 41.1561135], [-7.9021411, 41.1560581]]}, "properties": {}}, {"type": "Feature", "geometry": {"type": "LineString", "coordinates": [[-7.9021411, 41.1560581], [-7.9023885, 41.1559458]]}, "properties": {}}, {"type": "Feature", "geometry": {"type": "LineString", "coordinates": [[-7.9023885, 41.1559458], [-7.9027248, 41.1557224]]}, "properties": {}}, {"type": "Feature", "geometry": {"type": "LineString", "coordinates": [[-7.9027248, 41.1557224], [-7.9029647, 41.155533]]}, "properties": {}}, {"type": "Feature", "geometry": {"type": "LineString", "coordinates": [[-7.9029647, 41.155533], [-7.9033225, 41.1551073]]}, "properties": {}}, {"type": "Feature", "geometry": {"type": "LineString", "coordinates": [[-7.9033225, 41.1551073], [-7.9035095, 41.1548817]]}, "properties": {}}, {"type": "Feature", "geometry": {"type": "LineString", "coordinates": [[-7.9035095, 41.1548817], [-7.9036967, 41.1547593]]}, "properties": {}}, {"type": "Feature", "geometry": {"type": "LineString", "coordinates": [[-7.9036967, 41.1547593], [-7.9046577, 41.1549975], [-7.9054785, 41.1550076], [-7.9059785, 41.1549968], [-7.9065436, 41.1549064], [-7.9069829, 41.1547088], [-7.9072231, 41.1544833], [-7.9075331, 41.1544159], [-7.9078079, 41.154376], [-7.9080266, 41.1545048], [-7.9081553, 41.1547148], [-7.9083792, 41.1547367], [-7.9085845, 41.1546461], [-7.9085308, 41.1543028], [-7.9083806, 41.1541816], [-7.9084128, 41.1539676], [-7.9082573, 41.1535596], [-7.9084452, 41.1533933], [-7.9087079, 41.1533536], [-7.9094482, 41.1531517], [-7.9096037, 41.1529012], [-7.9096735, 41.1526448], [-7.9096332, 41.1522974], [-7.9105881, 41.1511422], [-7.9107007, 41.150924], [-7.9109368, 41.1507382], [-7.9117683, 41.1503161], [-7.9141286, 41.1494537], [-7.9153624, 41.1485125], [-7.9168028, 41.1477107], [-7.9179132, 41.1468402], [-7.9185328, 41.1465514], [-7.9193079, 41.1460282], [-7.9195842, 41.1457051], [-7.9203379, 41.1451476], [-7.9205927, 41.1446123], [-7.9208851, 41.1443942], [-7.9210004, 41.1441478], [-7.9217649, 41.143661], [-7.9223067, 41.1434832], [-7.922591, 41.1434772], [-7.9232401, 41.143259], [-7.9235137, 41.1430611], [-7.924313, 41.1426955], [-7.924718, 41.1426127], [-7.9253241, 41.1422026], [-7.9253456, 41.1418229], [-7.9251954, 41.1414613], [-7.9249728, 41.141433], [-7.9247099, 41.1414532], [-7.9245275, 41.1413866], [-7.9239965, 41.1403281], [-7.92357, 41.1397666], [-7.9233822, 41.1390919], [-7.9235217, 41.1387929], [-7.9236987, 41.1387485], [-7.9242137, 41.1389101], [-7.9244256, 41.138906], [-7.9245731, 41.1388475], [-7.924616, 41.1385263], [-7.9248118, 41.1382556], [-7.9250237, 41.13789], [-7.9254368, 41.1376617], [-7.9257345, 41.1373829], [-7.926389, 41.1369082], [-7.9271454, 41.1363224], [-7.9273063, 41.1360173], [-7.9272795, 41.1355426], [-7.9269227, 41.1353265], [-7.9268959, 41.1352032], [-7.9269496, 41.1351144], [-7.9273734, 41.1350255], [-7.9276496, 41.1348598], [-7.9282504, 41.1342255], [-7.9286823, 41.1340619], [-7.9290846, 41.1341568], [-7.9297605, 41.1341103], [-7.9303131, 41.1336457], [-7.930533, 41.1332033], [-7.9305008, 41.1324861], [-7.9303694, 41.1321346], [-7.9306537, 41.1317164], [-7.9309863, 41.1315083], [-7.9312035, 41.1312174], [-7.9310453, 41.1308396], [-7.9306, 41.1300416], [-7.9299456, 41.1298598], [-7.9293957, 41.1294739], [-7.9292616, 41.129183], [-7.929275, 41.1288395], [-7.9297927, 41.1283163], [-7.9299778, 41.1280213], [-7.9304606, 41.1270798], [-7.9306135, 41.1269869], [-7.9308951, 41.1269161], [-7.9316193, 41.1270838], [-7.9321611, 41.1274172], [-7.9327002, 41.1275909], [-7.9331321, 41.1275101], [-7.9336855, 41.1274075], [-7.9346395, 41.1274172], [-7.9350203, 41.1272616], [-7.9350203, 41.1267323], [-7.9351491, 41.1263949], [-7.9362568, 41.1254918], [-7.9364312, 41.1252655], [-7.9365285, 41.1251364], [-7.9366997, 41.1250861], [-7.9370765, 41.1250916], [-7.9373565, 41.1250776], [-7.9375201, 41.1249745], [-7.9390226, 41.1247816], [-7.9398134, 41.12473], [-7.9408675, 41.1245442], [-7.9417768, 41.123936], [-7.9422468, 41.123812], [-7.9433034, 41.1226698]]}, "properties": {}}, {"type": "Feature", "geometry": {"type": "LineString", "coordinates": [[-8.0201165, 41.1081728], [-8.0198562, 41.107934], [-8.0192109, 41.1075181], [-8.0182132, 41.1070287], [-8.0173089, 41.1065649], [-8.0167655, 41.1062866], [-8.0158867, 41.1056788], [-8.0151352, 41.1050486], [-8.0146119, 41.1044417]]}, "properties": {}}, {"type": "Feature", "geometry": {"type": "LineString", "coordinates": [[-7.9921211, 41.1903346], [-7.9932125, 41.189917], [-7.9941566, 41.189594], [-7.9957659, 41.1897232], [-7.996184, 41.1896183], [-7.996989, 41.1894164], [-7.998534, 41.1888512], [-7.9996927, 41.1880438], [-8.0004222, 41.1872849], [-8.0014951, 41.1866389], [-8.0022676, 41.1858638], [-8.003125, 41.1848889], [-8.0038673, 41.1842377], [-8.0038716, 41.1837564], [-8.0044241, 41.1833042], [-8.0045823, 41.1828722], [-8.0051375, 41.1825331], [-8.0058603, 41.1825534], [-8.0060065, 41.1825189], [-8.0061827, 41.1822659], [-8.0062463, 41.1819928], [-8.0067025, 41.1817438], [-8.0072082, 41.1816509], [-8.0083722, 41.1814633], [-8.0084692, 41.1813861], [-8.0090857, 41.1809706], [-8.0091324, 41.1805274], [-8.0094961, 41.1804013], [-8.0100111, 41.180046], [-8.0111913, 41.1789115], [-8.0116899, 41.17879], [-8.0121348, 41.1787754], [-8.0123138, 41.1786762], [-8.0125456, 41.178298], [-8.0129275, 41.1773953], [-8.0134003, 41.176556], [-8.0136923, 41.1760318], [-8.0143775, 41.175324], [-8.0145559, 41.1752906], [-8.0151154, 41.1754843], [-8.0154839, 41.1754581], [-8.0158664, 41.1752561], [-8.0167088, 41.1746236], [-8.0170978, 41.1744439], [-8.0167392, 41.1741337], [-8.0168084, 41.1737708]]}, "properties": {}}, {"type": "Feature", "geometry": {"type": "LineString", "coordinates": [[-8.0168084, 41.1737708], [-8.0167795, 41.1736621]]}, "properties": {}}, {"type": "Feature", "geometry": {"type": "LineString", "coordinates": [[-8.0167795, 41.1736621], [-8.0167249, 41.1734566], [-8.0165962, 41.1731659], [-8.0168108, 41.1727298], [-8.0174929, 41.1724439], [-8.0181025, 41.1720873], [-8.0188063, 41.1719061], [-8.0201179, 41.1710399], [-8.020553, 41.1703425], [-8.0208376, 41.170011], [-8.0208801, 41.1696766], [-8.0209282, 41.169511], [-8.0215583, 41.1690241], [-8.0215972, 41.1687525], [-8.0216739, 41.168218], [-8.021415, 41.1677895], [-8.0215136, 41.1674986], [-8.0218408, 41.1669361], [-8.0219468, 41.1666961], [-8.0221631, 41.1665262], [-8.0225458, 41.1664961], [-8.0227316, 41.166396], [-8.0229101, 41.1662558], [-8.0231536, 41.1659369], [-8.0233633, 41.1657929], [-8.0235526, 41.1657421], [-8.0236542, 41.1656925], [-8.0240445, 41.1652951], [-8.0241975, 41.1651921], [-8.0243865, 41.165121], [-8.024695, 41.1650586], [-8.0249127, 41.1648993], [-8.0251833, 41.1648339], [-8.0256106, 41.1648501], [-8.0260376, 41.1646696], [-8.0264667, 41.1641203], [-8.0266813, 41.1635711], [-8.0267061, 41.163097], [-8.0262909, 41.1627868], [-8.0260708, 41.1624643], [-8.0260666, 41.1620621], [-8.0258673, 41.1616845], [-8.0257929, 41.160856], [-8.0254337, 41.1597723], [-8.0251728, 41.1595958], [-8.0251214, 41.1594105], [-8.025154, 41.1589631], [-8.0251746, 41.1588048], [-8.0254698, 41.1586649], [-8.0259625, 41.1585914], [-8.0260334, 41.1582121]]}, "properties": {}}, {"type": "Feature", "geometry": {"type": "LineString", "coordinates": [[-8.0260334, 41.1582121], [-8.026161, 41.1581565]]}, "properties": {}}, {"type": "Feature", "geometry": {"type": "LineString", "coordinates": [[-8.026161, 41.1581565], [-8.0264882, 41.1580139], [-8.0267242, 41.1578685], [-8.0272119, 41.1574563], [-8.0274875, 41.1568967], [-8.0272528, 41.156698], [-8.0271967, 41.1564992], [-8.0276659, 41.1560147], [-8.0278701, 41.1557263]]}, "properties": {}}, {"type": "Feature", "geometry": {"type": "LineString", "coordinates": [[-8.0278701, 41.1557263], [-8.0279326, 41.155638]]}, "properties": {}}, {"type": "Feature", "geometry": {"type": "LineString", "coordinates": [[-8.0279326, 41.155638], [-8.0280483, 41.1554745], [-8.0282873, 41.1551043], [-8.0286146, 41.1549825], [-8.0291764, 41.1545588], [-8.0293018, 41.1542656], [-8.0295826, 41.153814], [-8.030349, 41.1534197], [-8.0310158, 41.1533609], [-8.0313138, 41.1531442], [-8.0313105, 41.1526087], [-8.0321957, 41.152116], [-8.0325054, 41.1518323], [-8.0331182, 41.1518218], [-8.0339624, 41.1511563], [-8.0343846, 41.1504689], [-8.034685, 41.1497418], [-8.0348246, 41.1491169], [-8.034872, 41.1487742], [-8.0349319, 41.1482927], [-8.0348178, 41.1480382], [-8.0345239, 41.1479242], [-8.034502, 41.1476518], [-8.0345593, 41.1475208], [-8.0347848, 41.1473236], [-8.0352119, 41.1470004], [-8.0354177, 41.1466085], [-8.035369, 41.1464609], [-8.035415, 41.1463468], [-8.0352041, 41.1460974], [-8.0350909, 41.1458063], [-8.0351984, 41.1456742], [-8.0356176, 41.1456024], [-8.0359404, 41.1455208], [-8.0362073, 41.1452364], [-8.0365089, 41.1449751], [-8.0371851, 41.1449147], [-8.0376345, 41.1445672], [-8.0377211, 41.1443777], [-8.0375637, 41.1442187], [-8.036934, 41.1442618], [-8.036611, 41.1440965], [-8.0366377, 41.1436986], [-8.0368385, 41.1430713], [-8.0372501, 41.1427409], [-8.0373789, 41.1424067], [-8.0373628, 41.1421805], [-8.0373199, 41.1419866], [-8.0371643, 41.1417361], [-8.0368505, 41.1415018], [-8.0366278, 41.1413543], [-8.0366037, 41.1412432], [-8.0366383, 41.1411345], [-8.0367646, 41.1409988], [-8.0367805, 41.1408841], [-8.0366359, 41.1405342], [-8.0364911, 41.1402393], [-8.0364693, 41.1400761], [-8.036542, 41.139904], [-8.0366305, 41.1397242], [-8.0367056, 41.1394576], [-8.0368529, 41.1391711], [-8.037006, 41.138999], [-8.0371911, 41.138894], [-8.0374432, 41.1388657], [-8.0378668, 41.1389146], [-8.0381379, 41.138898], [-8.0383174, 41.1388479], [-8.0385534, 41.1386641], [-8.0388407, 41.1383668], [-8.0388753, 41.1382258], [-8.0387682, 41.1380617], [-8.0387385, 41.137949], [-8.0388055, 41.1378601], [-8.0390174, 41.1377793], [-8.0393878, 41.1375305], [-8.0395354, 41.1373709], [-8.0395273, 41.1372133], [-8.0395401, 41.1371284]]}, "properties": {}}, {"type": "Feature", "geometry": {"type": "LineString", "coordinates": [[-8.0395401, 41.1371284], [-8.0395535, 41.1370391]]}, "properties": {}}, {"type": "Feature", "geometry": {"type": "Polygon", "coordinates": [[[-8.0498341, 41.1328735], [-8.0497891, 41.1328537], [-8.0497454, 41.1328125], [-8.0497045, 41.1327602], [-8.0496686, 41.1326926], [-8.0496254, 41.1326061], [-8.0496224, 41.1324842], [-8.049693, 41.1324071], [-8.0498139, 41.1323581], [-8.0499526, 41.1323779], [-8.0500183, 41.1324239], [-8.050033, 41.1324982], [-8.0500157, 41.1326137], [-8.0499585, 41.1327367], [-8.0499026, 41.132813], [-8.0498341, 41.1328735]]]}, "properties": {}}, {"type": "Feature", "geometry": {"type": "Polygon", "coordinates": [[[-8.0683754, 41.1030138], [-8.0682088, 41.1031501], [-8.0679791, 41.1034151], [-8.067725, 41.1037138], [-8.0675461, 41.1038869], [-8.067851, 41.1034412], [-8.0678083, 41.1034075], [-8.0678856, 41.1032635], [-8.0680177, 41.1030965], [-8.0681579, 41.102928], [-8.0682921, 41.1028361], [-8.0683673, 41.1027902], [-8.0684222, 41.1027733], [-8.0684507, 41.1027626], [-8.0685055, 41.1029939], [-8.0683754, 41.1030138]]]}, "properties": {}}, {"type": "Feature", "geometry": {"type": "Polygon", "coordinates": [[[-8.0619168, 41.1296017], [-8.0618496, 41.1296165], [-8.0618411, 41.1295949], [-8.0619083, 41.12958], [-8.0619168, 41.1296017]]]}, "properties": {}}, {"type": "Feature", "geometry": {"type": "Polygon", "coordinates": [[[-8.0617795, 41.1300357], [-8.0617363, 41.1300153], [-8.0617767, 41.129967], [-8.0618198, 41.1299875], [-8.0617795, 41.1300357]]]}, "properties": {}}, {"type": "Feature", "geometry": {"type": "Polygon", "coordinates": [[[-7.8907553, 41.162277], [-7.8907649, 41.1622943], [-7.8907671, 41.1623101], [-7.8907617, 41.1623274], [-7.8907451, 41.1623452], [-7.890715, 41.1623634], [-7.8906233, 41.1623997], [-7.8904779, 41.1624901], [-7.8903167, 41.1625809], [-7.8901791, 41.1626425], [-7.8899482, 41.1627548], [-7.8895931, 41.1629449], [-7.889467, 41.163171], [-7.8894845, 41.1632179], [-7.8895132, 41.1632459], [-7.8894997, 41.163278], [-7.8894693, 41.163255], [-7.8894499, 41.1632277], [-7.8894369, 41.1631977], [-7.889433, 41.1631649], [-7.8894448, 41.1631331], [-7.8894781, 41.163044], [-7.8895122, 41.1629756], [-7.8895686, 41.1629102], [-7.8897785, 41.1628001], [-7.8901481, 41.1626147], [-7.8903501, 41.1625082], [-7.8905884, 41.1623539], [-7.8907435, 41.1622633], [-7.8907553, 41.162277]]]}, "properties": {}}, {"type": "Feature", "geometry": {"type": "Polygon", "coordinates": [[[-7.9211517, 41.1325697], [-7.9211618, 41.1325578], [-7.9211765, 41.1325491], [-7.9211941, 41.1325444], [-7.9212129, 41.1325443], [-7.9212308, 41.1325488], [-7.9212457, 41.1325574], [-7.9212561, 41.1325693], [-7.9212608, 41.132583], [-7.9212593, 41.1325971], [-7.9212517, 41.1326101], [-7.921239, 41.1326206], [-7.9212224, 41.1326273], [-7.921204, 41.1326296], [-7.9211855, 41.1326273], [-7.9211691, 41.1326206], [-7.9211564, 41.1326102], [-7.9211489, 41.1325974], [-7.9211472, 41.1325833], [-7.9211517, 41.1325697]]]}, "properties": {}}, {"type": "Feature", "geometry": {"type": "Polygon", "coordinates": [[[-7.9224314, 41.1327532], [-7.9224415, 41.1327413], [-7.9224562, 41.1327326], [-7.9224738, 41.1327279], [-7.9224926, 41.1327278], [-7.9225105, 41.1327323], [-7.9225254, 41.1327409], [-7.9225358, 41.1327527], [-7.9225405, 41.1327665], [-7.922539, 41.1327806], [-7.9225314, 41.1327936], [-7.9225187, 41.132804], [-7.9225021, 41.1328108], [-7.9224837, 41.1328131], [-7.9224652, 41.1328107], [-7.9224488, 41.132804], [-7.9224361, 41.1327937], [-7.9224285, 41.1327808], [-7.9224269, 41.1327668], [-7.9224314, 41.1327532]]]}, "properties": {}}, {"type": "Feature", "geometry": {"type": "Polygon", "coordinates": [[[-7.9174877, 41.1364132], [-7.917517, 41.1363583], [-7.9176027, 41.1363842], [-7.9175734, 41.1364391], [-7.9174877, 41.1364132]]]}, "properties": {}}, {"type": "Feature", "geometry": {"type": "Polygon", "coordinates": [[[-7.8950858, 41.164342], [-7.8950475, 41.1642925], [-7.8951067, 41.1642666], [-7.8951449, 41.1643161], [-7.8950858, 41.164342]]]}, "properties": {}}, {"type": "Feature", "geometry": {"type": "Polygon", "coordinates": [[[-7.900727, 41.1600826], [-7.9007139, 41.1600591], [-7.9008043, 41.1600303], [-7.9008175, 41.1600539], [-7.900727, 41.1600826]]]}, "properties": {}}, {"type": "Feature", "geometry": {"type": "LineString", "coordinates": [[-7.914193797686637, 41.1201191667021], [-7.9142255, 41.1202171]]}, "properties": {}}, {"type": "Feature", "geometry": {"type": "Polygon", "coordinates": [[[-7.9957343, 41.1352978], [-7.9955241, 41.1351782], [-7.9955031, 41.1351272], [-7.9955335, 41.1350938], [-7.99576, 41.1348828], [-7.9957927, 41.1348792], [-7.995851, 41.1348986], [-7.9960355, 41.1350199], [-7.9960402, 41.1350481], [-7.9958137, 41.135282], [-7.9957786, 41.1353013], [-7.9957343, 41.1352978]]]}, "properties": {}}, {"type": "Feature", "geometry": {"type": "Polygon", "coordinates": [[[-7.992856, 41.1349905], [-7.9929068, 41.1350742], [-7.9928547, 41.1350922], [-7.9928039, 41.1350085], [-7.992856, 41.1349905]]]}, "properties": {}}, {"type": "Feature", "geometry": {"type": "Polygon", "coordinates": [[[-7.9784341, 41.151274], [-7.9784352, 41.1512945], [-7.9784275, 41.1513142], [-7.9784119, 41.151331], [-7.9783899, 41.1513432], [-7.978364, 41.1513494], [-7.9783358, 41.151349], [-7.9783093, 41.1513415], [-7.9782877, 41.1513279], [-7.9782732, 41.1513097], [-7.9782675, 41.1512889], [-7.9782713, 41.1512679], [-7.9782841, 41.1512489], [-7.9783044, 41.1512343], [-7.9783301, 41.1512255], [-7.9783573, 41.1512235], [-7.9783838, 41.1512282], [-7.978407, 41.151239], [-7.9784244, 41.1512548], [-7.9784341, 41.151274]]]}, "properties": {}}, {"type": "Feature", "geometry": {"type": "Polygon", "coordinates": [[[-7.9756045, 41.1520811], [-7.9756056, 41.1521016], [-7.975598, 41.1521213], [-7.9755823, 41.1521381], [-7.9755604, 41.1521503], [-7.9755344, 41.1521565], [-7.9755062, 41.1521561], [-7.9754798, 41.1521486], [-7.9754581, 41.152135], [-7.9754436, 41.1521168], [-7.9754379, 41.152096], [-7.9754417, 41.152075], [-7.9754545, 41.152056], [-7.9754749, 41.1520413], [-7.9755005, 41.1520326], [-7.9755277, 41.1520306], [-7.9755542, 41.1520353], [-7.9755774, 41.1520461], [-7.9755948, 41.1520619], [-7.9756045, 41.1520811]]]}, "properties": {}}, {"type": "Feature", "geometry": {"type": "Polygon", "coordinates": [[[-8.0640151, 41.1091197], [-8.0640145, 41.1089671], [-8.064105, 41.109098], [-8.0641741, 41.1091404], [-8.0641754, 41.1091495], [-8.0640151, 41.1091197]]]}, "properties": {}}, {"type": "Feature", "geometry": {"type": "Polygon", "coordinates": [[[-8.0589074, 41.1111764], [-8.0588826, 41.111086], [-8.058931, 41.1110784], [-8.0589558, 41.1111689], [-8.0589074, 41.1111764]]]}, "properties": {}}, {"type": "Feature", "geometry": {"type": "Polygon", "coordinates": [[[-8.0591114, 41.1110395], [-8.0591515, 41.1110102], [-8.0591958, 41.1110445], [-8.0591556, 41.1110739], [-8.0591114, 41.1110395]]]}, "properties": {}}, {"type": "Feature", "geometry": {"type": "Polygon", "coordinates": [[[-8.059326, 41.1110724], [-8.0593686, 41.1110485], [-8.0593994, 41.1110799], [-8.0593568, 41.1111037], [-8.059326, 41.1110724]]]}, "properties": {}}, {"type": "Feature", "geometry": {"type": "Polygon", "coordinates": [[[-7.9989086, 41.1149718], [-7.9988764, 41.1149274], [-7.99893, 41.1149054], [-7.9989622, 41.1149498], [-7.9989086, 41.1149718]]]}, "properties": {}}, {"type": "Feature", "geometry": {"type": "Polygon", "coordinates": [[[-7.9815097, 41.1153383], [-7.9815135, 41.1152757], [-7.9816322, 41.1152797], [-7.9816284, 41.1153423], [-7.9815097, 41.1153383]]]}, "properties": {}}, {"type": "Feature", "geometry": {"type": "Polygon", "coordinates": [[[-7.9832008, 41.1127103], [-7.9830815, 41.1125415], [-7.9835133, 41.112389], [-7.9835422, 41.1123566], [-7.9835777, 41.1123839], [-7.9836018, 41.1124607], [-7.9835469, 41.1125708], [-7.9832988, 41.1127386], [-7.9832008, 41.1127103]]]}, "properties": {}}, {"type": "Feature", "geometry": {"type": "Polygon", "coordinates": [[[-7.9819623, 41.1238668], [-7.9819887, 41.123851], [-7.9820229, 41.1238833], [-7.9819965, 41.1238991], [-7.9819623, 41.1238668]]]}, "properties": {}}, {"type": "Feature", "geometry": {"type": "Polygon", "coordinates": [[[-8.0011549, 41.1264843], [-8.001191, 41.1264947], [-8.0011688, 41.1265382], [-8.0011328, 41.1265277], [-8.0011549, 41.1264843]]]}, "properties": {}}, {"type": "Feature", "geometry": {"type": "Polygon", "coordinates": [[[-8.0020005, 41.127152], [-8.0019786, 41.1271023], [-8.0020939, 41.1270735], [-8.0021158, 41.1271232], [-8.0020005, 41.127152]]]}, "properties": {}}, {"type": "Feature", "geometry": {"type": "Polygon", "coordinates": [[[-7.8970098, 41.2227029], [-7.8970082, 41.2226589], [-7.8970159, 41.2225929], [-7.8970668, 41.2225349], [-7.8972254, 41.2226172], [-7.8971808, 41.2226439], [-7.8971222, 41.222718], [-7.897076, 41.2227586], [-7.8970071, 41.2227824], [-7.8970098, 41.2227029]]]}, "properties": {}}, {"type": "Feature", "geometry": {"type": "Polygon", "coordinates": [[[-8.0512264, 41.1372307], [-8.0510977, 41.1370741], [-8.0511902, 41.1370176], [-8.0513364, 41.137158], [-8.0512264, 41.1372307]]]}, "properties": {}}, {"type": "Feature", "geometry": {"type": "LineString", "coordinates": [[-8.02702609347204, 41.096842730155466], [-8.0270168, 41.0969037]]}, "properties": {}}, {"type": "Feature", "geometry": {"type": "Polygon", "coordinates": [[[-8.0109733, 41.1831898], [-8.0109263, 41.1831507], [-8.0110303, 41.1830798], [-8.0110773, 41.1831189], [-8.0109733, 41.1831898]]]}, "properties": {}}, {"type": "Feature", "geometry": {"type": "Polygon", "coordinates": [[[-8.0738265, 41.116593], [-8.0737676, 41.1165513], [-8.0738092, 41.1165179], [-8.0738681, 41.1165597], [-8.0738265, 41.116593]]]}, "properties": {}}, {"type": "Feature", "geometry": {"type": "Polygon", "coordinates": [[[-7.9465341, 41.1299398], [-7.9465498, 41.1297204], [-7.9466397, 41.1294891], [-7.9467027, 41.1294022], [-7.9468408, 41.1293274], [-7.9469212, 41.1292511], [-7.9469802, 41.1292893], [-7.9470404, 41.1293282], [-7.9468784, 41.1294163], [-7.9467858, 41.1294769], [-7.9467161, 41.1295921], [-7.9466544, 41.1297557], [-7.9465341, 41.1299398]]]}, "properties": {}}, {"type": "Feature", "geometry": {"type": "Polygon", "coordinates": [[[-8.0490262, 41.1404438], [-8.0489724, 41.1404575], [-8.0489266, 41.1404507], [-8.0488575, 41.14043], [-8.0488494, 41.1404078], [-8.0488616, 41.1403864], [-8.0490456, 41.1403152], [-8.0490638, 41.1403182], [-8.049074, 41.1403504], [-8.0490811, 41.1403864], [-8.0490618, 41.1404193], [-8.0490262, 41.1404438]]]}, "properties": {}}, {"type": "Feature", "geometry": {"type": "Polygon", "coordinates": [[[-7.9872564, 41.1360648], [-7.9872512, 41.1360004], [-7.9872998, 41.1359982], [-7.987305, 41.1360626], [-7.9872564, 41.1360648]]]}, "properties": {}}, {"type": "Feature", "geometry": {"type": "Polygon", "coordinates": [[[-7.9921263, 41.1385809], [-7.992059, 41.1385055], [-7.9921293, 41.13847], [-7.9921965, 41.1385454], [-7.9921263, 41.1385809]]]}, "properties": {}}, {"type": "Feature", "geometry": {"type": "Polygon", "coordinates": [[[-8.0183867, 41.1142446], [-8.0183582, 41.1142002], [-8.0182851, 41.1141971], [-8.018342, 41.1140685], [-8.0183826, 41.1140869], [-8.0184192, 41.1141007], [-8.0184335, 41.1141175], [-8.0184396, 41.1141711], [-8.0184253, 41.1142538], [-8.0183867, 41.1142446]]]}, "properties": {}}, {"type": "Feature", "geometry": {"type": "Polygon", "coordinates": [[[-8.0175466, 41.1125468], [-8.0175077, 41.1125418], [-8.0174728, 41.1125256], [-8.0174527, 41.1124953], [-8.0174648, 41.1124529], [-8.0174969, 41.1124256], [-8.0175358, 41.1124155], [-8.0176029, 41.1124387], [-8.0176317, 41.1124534], [-8.0176391, 41.1124882], [-8.0176243, 41.1125095], [-8.0175747, 41.1125388], [-8.0175466, 41.1125468]]]}, "properties": {}}, {"type": "Feature", "geometry": {"type": "Polygon", "coordinates": [[[-8.0889087, 41.1194021], [-8.0888264, 41.1191842], [-8.0889406, 41.1191597], [-8.0890229, 41.1193776], [-8.0889087, 41.1194021]]]}, "properties": {}}, {"type": "Feature", "geometry": {"type": "Point", "coordinates": [-7.897073215776093, 41.22257597482471]}, "properties": {"nome": "DFCI Mafomedes", "volume_m3": 450.0, "oficial": true, "classe": "M"}}, {"type": "Feature", "geometry": {"type": "Point", "coordinates": [-7.896182411952201, 41.1997140646224]}, "properties": {"nome": "DFCI Cimo de Teixeiró", "volume_m3": 126.0, "oficial": true, "classe": "M"}}, {"type": "Feature", "geometry": {"type": "Point", "coordinates": [-8.089864458847757, 41.10114040085824]}, "properties": {"nome": "DFCI Rio Douro", "volume_m3": 100000.0, "oficial": true, "classe": "M"}}, {"type": "Feature", "geometry": {"type": "Point", "coordinates": [-8.081690861840874, 41.12509420011477]}, "properties": {"nome": "DFCI Tuaraz", "volume_m3": 0.0, "oficial": true, "classe": "M"}}, {"type": "Feature", "geometry": {"type": "Point", "coordinates": [-8.023674336139003, 41.19430608212057]}, "properties": {"nome": "DFCI Sra da Guia", "volume_m3": 224.0, "oficial": true, "classe": "M"}}, {"type": "Feature", "geometry": {"type": "Point", "coordinates": [-7.9298823643005285, 41.128867604206455]}, "properties": {"nome": "DFCI Loivos da Ribeira", "volume_m3": 0.0, "oficial": true, "classe": "M"}}, {"type": "Feature", "geometry": {"type": "Point", "coordinates": [-8.004150348674722, 41.13029328921554]}, "properties": {"nome": "DFCI Queixomil", "volume_m3": 224.0, "oficial": true, "classe": "M"}}, {"type": "Feature", "geometry": {"type": "Point", "coordinates": [-7.960037966945343, 41.189589406282664]}, "properties": {"nome": "DFCI Loivos Monte", "volume_m3": 224.0, "oficial": true, "classe": "M"}}, {"type": "Feature", "geometry": {"type": "Point", "coordinates": [-7.921314694120397, 41.160940154684866]}, "properties": {"nome": "DFCI Sra da Graça", "volume_m3": 224.0, "oficial": true, "classe": "M"}}, {"type": "Feature", "geometry": {"type": "Point", "coordinates": [-8.049181016640382, 41.16483760396976]}, "properties": {"nome": "DFCI CENTRO HIPICO", "volume_m3": 224.0, "oficial": true, "classe": "M"}}, {"type": "Feature", "geometry": {"type": "Point", "coordinates": [-7.983629955292717, 41.15908317528248]}, "properties": {"nome": "DFCI ERMIDA", "volume_m3": 224.0, "oficial": true, "classe": "M"}}, {"type": "Feature", "geometry": {"type": "Point", "coordinates": [-8.05488941428299, 41.09516941318509]}, "properties": {"nome": "Vale da Cunha", "volume_m3": 4.0, "oficial": true, "classe": "T"}}, {"type": "Feature", "geometry": {"type": "Point", "coordinates": [-8.045377462304362, 41.099297932666495]}, "properties": {"nome": "Boavista", "volume_m3": 9.0, "oficial": true, "classe": "T"}}, {"type": "Feature", "geometry": {"type": "Point", "coordinates": [-8.091113986244846, 41.09954073605697]}, "properties": {"nome": "Rio Douro - Pala", "volume_m3": 100000.0, "oficial": true, "classe": "M"}}, {"type": "Feature", "geometry": {"type": "Point", "coordinates": [-8.05556873654351, 41.099866559166514]}, "properties": {"nome": "Cruzamento para Mosteirô 2", "volume_m3": 4.0, "oficial": true, "classe": "T"}}, {"type": "Feature", "geometry": {"type": "Point", "coordinates": [-8.057335252390509, 41.100549862712825]}, "properties": {"nome": "Cruzamento para Mosteirô 1", "volume_m3": 6.0, "oficial": true, "classe": "T"}}, {"type": "Feature", "geometry": {"type": "Point", "coordinates": [-8.055117679260272, 41.10163274122956]}, "properties": {"nome": "Vinha Convento", "volume_m3": 24.0, "oficial": true, "classe": "T"}}, {"type": "Feature", "geometry": {"type": "Point", "coordinates": [-8.02965379506181, 41.10287908285525]}, "properties": {"nome": "DFCI Ermelo", "volume_m3": 600.0, "oficial": true, "classe": "M"}}, {"type": "Feature", "geometry": {"type": "Point", "coordinates": [-8.067776249616585, 41.10360527048771]}, "properties": {"nome": "Açude do Rio Ovil", "volume_m3": 2400.0, "oficial": true, "classe": "M"}}, {"type": "Feature", "geometry": {"type": "Point", "coordinates": [-8.013334829758469, 41.10478824812156]}, "properties": {"nome": "Rio Douro - Aregos", "volume_m3": 100000.0, "oficial": true, "classe": "M"}}, {"type": "Feature", "geometry": {"type": "Point", "coordinates": [-8.037876531876867, 41.104831979688804]}, "properties": {"nome": "Sequeiros", "volume_m3": 4.0, "oficial": true, "classe": "T"}}, {"type": "Feature", "geometry": {"type": "Point", "coordinates": [-8.027153747413475, 41.106157918277155]}, "properties": {"nome": "Escola Lordelo", "volume_m3": 20.0, "oficial": true, "classe": "T"}}, {"type": "Feature", "geometry": {"type": "Point", "coordinates": [-8.040471288233723, 41.107671826511336]}, "properties": {"nome": "Costa", "volume_m3": 12.0, "oficial": true, "classe": "T"}}, {"type": "Feature", "geometry": {"type": "Point", "coordinates": [-8.064055406363742, 41.107784565293606]}, "properties": {"nome": "Penalva de Baixo", "volume_m3": 120.0, "oficial": true, "classe": "M"}}, {"type": "Feature", "geometry": {"type": "Point", "coordinates": [-8.059423203545956, 41.1087515162192]}, "properties": {"nome": "Sobreiro", "volume_m3": 28.0, "oficial": true, "classe": "T"}}, {"type": "Feature", "geometry": {"type": "Point", "coordinates": [-8.093851458488516, 41.109816050618946]}, "properties": {"nome": "Cepo", "volume_m3": 4.0, "oficial": true, "classe": "T"}}, {"type": "Feature", "geometry": {"type": "Point", "coordinates": [-8.069260202495306, 41.11208782390987]}, "properties": {"nome": "Esmoriz", "volume_m3": 200.0, "oficial": true, "classe": "T"}}, {"type": "Feature", "geometry": {"type": "Point", "coordinates": [-8.085585643570417, 41.11213345214893]}, "properties": {"nome": "Quintra do Paço", "volume_m3": 960.0, "oficial": true, "classe": "T"}}, {"type": "Feature", "geometry": {"type": "Point", "coordinates": [-8.077602130229112, 41.11315907596679]}, "properties": {"nome": "Balde", "volume_m3": 400.0, "oficial": true, "classe": "M"}}, {"type": "Feature", "geometry": {"type": "Point", "coordinates": [-7.98789766869354, 41.113488513525766]}, "properties": {"nome": "Granja", "volume_m3": 4.0, "oficial": true, "classe": "T"}}, {"type": "Feature", "geometry": {"type": "Point", "coordinates": [-8.0122685141406, 41.11424728164519]}, "properties": {"nome": "S. Salvador", "volume_m3": 144.0, "oficial": true, "classe": "T"}}, {"type": "Feature", "geometry": {"type": "Point", "coordinates": [-7.998312201069815, 41.11464893687715]}, "properties": {"nome": "Lazarim", "volume_m3": 200.0, "oficial": true, "classe": "T"}}, {"type": "Feature", "geometry": {"type": "Point", "coordinates": [-8.037295929892569, 41.11485617828319]}, "properties": {"nome": "Lugar de Silveira (Casa Nova)", "volume_m3": 42.0, "oficial": true, "classe": "T"}}, {"type": "Feature", "geometry": {"type": "Point", "coordinates": [-8.086998021124062, 41.11545068205562]}, "properties": {"nome": "Quinta do Miradouro", "volume_m3": 400.0, "oficial": true, "classe": "M"}}, {"type": "Feature", "geometry": {"type": "Point", "coordinates": [-8.092745533382667, 41.11569616704894]}, "properties": {"nome": "Casa das  Quartas (Aldeia Nova)", "volume_m3": 400.0, "oficial": true, "classe": "M"}}, {"type": "Feature", "geometry": {"type": "Point", "coordinates": [-8.098204422797169, 41.116979034784954]}, "properties": {"nome": "Castanheira (Manuel Nogueira)", "volume_m3": 200.0, "oficial": true, "classe": "M"}}, {"type": "Feature", "geometry": {"type": "Point", "coordinates": [-8.00540893074384, 41.11842615211972]}, "properties": {"nome": "Pedreda", "volume_m3": 50.0, "oficial": true, "classe": "T"}}, {"type": "Feature", "geometry": {"type": "Point", "coordinates": [-8.08541098066555, 41.119566669107904]}, "properties": {"nome": "Venda Nova", "volume_m3": 400.0, "oficial": true, "classe": "M"}}, {"type": "Feature", "geometry": {"type": "Point", "coordinates": [-8.02052434553581, 41.119588214222624]}, "properties": {"nome": "Vinha de Agrelos", "volume_m3": 12.0, "oficial": true, "classe": "T"}}, {"type": "Feature", "geometry": {"type": "Point", "coordinates": [-8.094844314994134, 41.12090597707957]}, "properties": {"nome": "Subal", "volume_m3": 6.0, "oficial": true, "classe": "T"}}, {"type": "Feature", "geometry": {"type": "Point", "coordinates": [-8.103234402739897, 41.122365906405754]}, "properties": {"nome": "Cocheca", "volume_m3": 13.0, "oficial": true, "classe": "T"}}, {"type": "Feature", "geometry": {"type": "Point", "coordinates": [-8.090197198064137, 41.122492307472264]}, "properties": {"nome": "Arrabalde", "volume_m3": 200.0, "oficial": true, "classe": "M"}}, {"type": "Feature", "geometry": {"type": "Point", "coordinates": [-7.950939353322869, 41.123042174287214]}, "properties": {"nome": "Rio Douro - Ermida", "volume_m3": 100000.0, "oficial": true, "classe": "M"}}, {"type": "Feature", "geometry": {"type": "Point", "coordinates": [-7.996375720412425, 41.12341917461995]}, "properties": {"nome": "Lavadouro de Turquezes", "volume_m3": 8.0, "oficial": true, "classe": "T"}}, {"type": "Feature", "geometry": {"type": "Point", "coordinates": [-7.926488112993367, 41.123850983173355]}, "properties": {"nome": "Frende II", "volume_m3": 27.0, "oficial": true, "classe": "T"}}, {"type": "Feature", "geometry": {"type": "Point", "coordinates": [-7.927474246283441, 41.12452575917357]}, "properties": {"nome": "Frende I", "volume_m3": 120.0, "oficial": true, "classe": "M"}}, {"type": "Feature", "geometry": {"type": "Point", "coordinates": [-8.081703500823519, 41.12510211183625]}, "properties": {"nome": "DFCI Tuaraz", "volume_m3": 171.0, "oficial": true, "classe": "M"}}, {"type": "Feature", "geometry": {"type": "Point", "coordinates": [-8.04876993145532, 41.12543717643742]}, "properties": {"nome": "Portela de Gôve", "volume_m3": 450.0, "oficial": true, "classe": "M"}}, {"type": "Feature", "geometry": {"type": "Point", "coordinates": [-8.003678651530745, 41.125855017623465]}, "properties": {"nome": "Lodão II", "volume_m3": 12.0, "oficial": true, "classe": "T"}}, {"type": "Feature", "geometry": {"type": "Point", "coordinates": [-8.088650942789727, 41.12602036458122]}, "properties": {"nome": "Sernande", "volume_m3": 4.0, "oficial": true, "classe": "T"}}, {"type": "Feature", "geometry": {"type": "Point", "coordinates": [-8.00118593621678, 41.12650097977097]}, "properties": {"nome": "Lodão I", "volume_m3": 24.0, "oficial": true, "classe": "T"}}, {"type": "Feature", "geometry": {"type": "Point", "coordinates": [-7.980641533140172, 41.127563653150105]}, "properties": {"nome": "Fadroca", "volume_m3": 64.0, "oficial": true, "classe": "T"}}, {"type": "Feature", "geometry": {"type": "Point", "coordinates": [-7.933066397030492, 41.12853190818442]}, "properties": {"nome": "Lavadouro de Dízimos", "volume_m3": 12.0, "oficial": true, "classe": "T"}}, {"type": "Feature", "geometry": {"type": "Point", "coordinates": [-8.051538931220849, 41.12882917594725]}, "properties": {"nome": "Rio Ovil / Ponte de Gove", "volume_m3": 100.0, "oficial": true, "classe": "T"}}, {"type": "Feature", "geometry": {"type": "Point", "coordinates": [-7.929894401878087, 41.12887626987164]}, "properties": {"nome": "DFCI Loivos da Ribeira", "volume_m3": 171.0, "oficial": true, "classe": "M"}}, {"type": "Feature", "geometry": {"type": "Point", "coordinates": [-7.950147690576519, 41.128934163089944]}, "properties": {"nome": "Granja", "volume_m3": 200.0, "oficial": true, "classe": "T"}}, {"type": "Feature", "geometry": {"type": "Point", "coordinates": [-7.985329783842941, 41.130189977788426]}, "properties": {"nome": "Outeiro", "volume_m3": 4.0, "oficial": true, "classe": "T"}}, {"type": "Feature", "geometry": {"type": "Point", "coordinates": [-8.10274069209629, 41.132368266767756]}, "properties": {"nome": "Tapada", "volume_m3": 12.0, "oficial": true, "classe": "T"}}, {"type": "Feature", "geometry": {"type": "Point", "coordinates": [-7.957441932545827, 41.1324411817478]}, "properties": {"nome": "Passos - lugar da Fonte", "volume_m3": 15.0, "oficial": true, "classe": "T"}}, {"type": "Feature", "geometry": {"type": "Point", "coordinates": [-7.970215155614248, 41.133468378397986]}, "properties": {"nome": "DFCI Covelas", "volume_m3": 171.0, "oficial": true, "classe": "M"}}, {"type": "Feature", "geometry": {"type": "Point", "coordinates": [-8.013458290461339, 41.13471766121753]}, "properties": {"nome": "Corujeira", "volume_m3": 8.0, "oficial": true, "classe": "T"}}, {"type": "Feature", "geometry": {"type": "Point", "coordinates": [-7.933822428486707, 41.13524036151261]}, "properties": {"nome": "Loivos da Ribeira", "volume_m3": 4.0, "oficial": true, "classe": "T"}}, {"type": "Feature", "geometry": {"type": "Point", "coordinates": [-7.950122904953328, 41.13581115379028]}, "properties": {"nome": "Covêlo", "volume_m3": 45.0, "oficial": true, "classe": "T"}}, {"type": "Feature", "geometry": {"type": "Point", "coordinates": [-8.005021710647485, 41.13713993625474]}, "properties": {"nome": "Roçadas", "volume_m3": 20.0, "oficial": true, "classe": "T"}}, {"type": "Feature", "geometry": {"type": "Point", "coordinates": [-8.076149570827518, 41.137510110981644]}, "properties": {"nome": "Covelo", "volume_m3": 4.0, "oficial": true, "classe": "T"}}, {"type": "Feature", "geometry": {"type": "Point", "coordinates": [-7.984326425933588, 41.13746379031277]}, "properties": {"nome": "Covelas", "volume_m3": 12.0, "oficial": true, "classe": "T"}}, {"type": "Feature", "geometry": {"type": "Point", "coordinates": [-8.027271824454342, 41.13791258596864]}, "properties": {"nome": "Tanque Pousada", "volume_m3": 4.0, "oficial": true, "classe": "T"}}, {"type": "Feature", "geometry": {"type": "Point", "coordinates": [-8.082452929527996, 41.13876011659365]}, "properties": {"nome": "Vale Escuro", "volume_m3": 12.0, "oficial": true, "classe": "T"}}, {"type": "Feature", "geometry": {"type": "Point", "coordinates": [-7.987133932850099, 41.13942917924755]}, "properties": {"nome": "Linha de água de Ermida - Valadares", "volume_m3": 84.0, "oficial": true, "classe": "T"}}, {"type": "Feature", "geometry": {"type": "Point", "coordinates": [-7.990655015523313, 41.1435076737818]}, "properties": {"nome": "Torna o Rego", "volume_m3": 32.0, "oficial": true, "classe": "T"}}, {"type": "Feature", "geometry": {"type": "Point", "coordinates": [-7.956697933613133, 41.14465218067745]}, "properties": {"nome": "Ribeiral", "volume_m3": 15.0, "oficial": true, "classe": "T"}}, {"type": "Feature", "geometry": {"type": "Point", "coordinates": [-7.987861656441017, 41.145558178896415]}, "properties": {"nome": "Lugar do Terreiro", "volume_m3": 5.0, "oficial": true, "classe": "T"}}, {"type": "Feature", "geometry": {"type": "Point", "coordinates": [-8.024884358578696, 41.147036460138104]}, "properties": {"nome": "Figueira", "volume_m3": 38.0, "oficial": true, "classe": "T"}}, {"type": "Feature", "geometry": {"type": "Point", "coordinates": [-7.962106712829492, 41.14744874319125]}, "properties": {"nome": "Carreira", "volume_m3": 6.0, "oficial": true, "classe": "T"}}, {"type": "Feature", "geometry": {"type": "Point", "coordinates": [-8.064509261621465, 41.14813161433072]}, "properties": {"nome": "Vila Moura", "volume_m3": 21.0, "oficial": true, "classe": "T"}}, {"type": "Feature", "geometry": {"type": "Point", "coordinates": [-8.022450934181014, 41.149070176845335]}, "properties": {"nome": "Amarelhe", "volume_m3": 29.0, "oficial": true, "classe": "M"}}, {"type": "Feature", "geometry": {"type": "Point", "coordinates": [-7.923387883633005, 41.14939672907535]}, "properties": {"nome": "Quebrada", "volume_m3": 15.0, "oficial": true, "classe": "T"}}, {"type": "Feature", "geometry": {"type": "Point", "coordinates": [-7.962811934083232, 41.14992117993483]}, "properties": {"nome": "Urgueira", "volume_m3": 45.0, "oficial": true, "classe": "T"}}, {"type": "Feature", "geometry": {"type": "Point", "coordinates": [-7.979161656101269, 41.150684178663745]}, "properties": {"nome": "Diagares", "volume_m3": 180.0, "oficial": true, "classe": "M"}}, {"type": "Feature", "geometry": {"type": "Point", "coordinates": [-7.95229346565041, 41.15240261944487]}, "properties": {"nome": "Lavadouro (Real)", "volume_m3": 4.0, "oficial": true, "classe": "T"}}, {"type": "Feature", "geometry": {"type": "Point", "coordinates": [-7.968591906485623, 41.15430617926403]}, "properties": {"nome": "Bajoncas", "volume_m3": 30.0, "oficial": true, "classe": "T"}}, {"type": "Feature", "geometry": {"type": "Point", "coordinates": [-7.975289906833819, 41.15619017911882]}, "properties": {"nome": "Requeixe", "volume_m3": 52.0, "oficial": true, "classe": "T"}}, {"type": "Feature", "geometry": {"type": "Point", "coordinates": [-8.021037731681673, 41.15775943759431]}, "properties": {"nome": "Vilares", "volume_m3": 128.0, "oficial": true, "classe": "M"}}, {"type": "Feature", "geometry": {"type": "Point", "coordinates": [-8.02631593453684, 41.158346175429855]}, "properties": {"nome": "Várzea (rio Ovil)", "volume_m3": 100.0, "oficial": true, "classe": "T"}}, {"type": "Feature", "geometry": {"type": "Point", "coordinates": [-7.983566044866414, 41.15905989482957]}, "properties": {"nome": "DFCI Ermida", "volume_m3": 128.0, "oficial": true, "classe": "M"}}, {"type": "Feature", "geometry": {"type": "Point", "coordinates": [-8.033894764259683, 41.16065254606943]}, "properties": {"nome": "Padaria Avenida", "volume_m3": 500.0, "oficial": true, "classe": "M"}}, {"type": "Feature", "geometry": {"type": "Point", "coordinates": [-8.016776122316248, 41.16123355035215]}, "properties": {"nome": "Espiga", "volume_m3": 6.0, "oficial": true, "classe": "T"}}, {"type": "Feature", "geometry": {"type": "Point", "coordinates": [-8.059842608059709, 41.16219018428992]}, "properties": {"nome": "DFCI Lameirão", "volume_m3": 171.0, "oficial": true, "classe": "M"}}, {"type": "Feature", "geometry": {"type": "Point", "coordinates": [-7.936350174686033, 41.162667489040324]}, "properties": {"nome": "Outeiro", "volume_m3": 24.0, "oficial": true, "classe": "T"}}, {"type": "Feature", "geometry": {"type": "Point", "coordinates": [-8.032592755271752, 41.1627898628656]}, "properties": {"nome": "Piscina Municipal de Baião", "volume_m3": 400.0, "oficial": true, "classe": "A"}}, {"type": "Feature", "geometry": {"type": "Point", "coordinates": [-8.03900719505223, 41.16340922922001]}, "properties": {"nome": "Lavadouro de Penaventosa", "volume_m3": 5.0, "oficial": true, "classe": "T"}}, {"type": "Feature", "geometry": {"type": "Point", "coordinates": [-8.038727417148392, 41.163675530333315]}, "properties": {"nome": "Poça de Penaventosa", "volume_m3": 20.0, "oficial": true, "classe": "T"}}, {"type": "Feature", "geometry": {"type": "Point", "coordinates": [-7.920557232837262, 41.16405245785925]}, "properties": {"nome": "Graça", "volume_m3": 4.0, "oficial": true, "classe": "T"}}, {"type": "Feature", "geometry": {"type": "Point", "coordinates": [-7.916540798909204, 41.164639539071636]}, "properties": {"nome": "DFCI Sra da Graça", "volume_m3": 171.0, "oficial": true, "classe": "M"}}, {"type": "Feature", "geometry": {"type": "Point", "coordinates": [-7.970788591142835, 41.166153151039424]}, "properties": {"nome": "Tanque do Bruzende", "volume_m3": 12.0, "oficial": true, "classe": "T"}}, {"type": "Feature", "geometry": {"type": "Point", "coordinates": [-7.937831061165385, 41.167032930355944]}, "properties": {"nome": "Carvalhais", "volume_m3": 8.0, "oficial": true, "classe": "T"}}, {"type": "Feature", "geometry": {"type": "Point", "coordinates": [-7.931846936434996, 41.16734418054533]}, "properties": {"nome": "Lugar da Igreja", "volume_m3": 22.0, "oficial": true, "classe": "M"}}, {"type": "Feature", "geometry": {"type": "Point", "coordinates": [-7.931854909065782, 41.16734815267419]}, "properties": {"nome": "Tojeiras", "volume_m3": 16.0, "oficial": true, "classe": "T"}}, {"type": "Feature", "geometry": {"type": "Point", "coordinates": [-7.970876802939205, 41.16821822697446]}, "properties": {"nome": "Tanque do Reguengo", "volume_m3": 38.0, "oficial": true, "classe": "T"}}, {"type": "Feature", "geometry": {"type": "Point", "coordinates": [-7.895897909117596, 41.16858715549442]}, "properties": {"nome": "Ponte Carrapatelo", "volume_m3": 75.0, "oficial": true, "classe": "T"}}, {"type": "Feature", "geometry": {"type": "Point", "coordinates": [-8.054724780709543, 41.16914103477254]}, "properties": {"nome": "Vilais", "volume_m3": 18.0, "oficial": true, "classe": "T"}}, {"type": "Feature", "geometry": {"type": "Point", "coordinates": [-7.940026651433899, 41.170541074465156]}, "properties": {"nome": "Quinta do Ferro", "volume_m3": 20.0, "oficial": true, "classe": "T"}}, {"type": "Feature", "geometry": {"type": "Point", "coordinates": [-7.9548976464112915, 41.171223279637324]}, "properties": {"nome": "Bouça", "volume_m3": 6.0, "oficial": true, "classe": "T"}}, {"type": "Feature", "geometry": {"type": "Point", "coordinates": [-7.960781139029207, 41.173332990673785]}, "properties": {"nome": "Tanque de Furacasas", "volume_m3": 14.0, "oficial": true, "classe": "T"}}, {"type": "Feature", "geometry": {"type": "Point", "coordinates": [-7.9472819371540115, 41.17988317858953]}, "properties": {"nome": "Pedreia", "volume_m3": 54.0, "oficial": true, "classe": "T"}}, {"type": "Feature", "geometry": {"type": "Point", "coordinates": [-7.944113631138135, 41.180746225901075]}, "properties": {"nome": "Tanque de Águas Mortas", "volume_m3": 21.0, "oficial": true, "classe": "T"}}, {"type": "Feature", "geometry": {"type": "Point", "coordinates": [-7.901225083395346, 41.18206163374973]}, "properties": {"nome": "Paço", "volume_m3": 63.0, "oficial": true, "classe": "T"}}, {"type": "Feature", "geometry": {"type": "Point", "coordinates": [-7.944392909651243, 41.18277417912304]}, "properties": {"nome": "Águas Mortas", "volume_m3": 14.0, "oficial": true, "classe": "T"}}, {"type": "Feature", "geometry": {"type": "Point", "coordinates": [-8.010925937549429, 41.183146174556214]}, "properties": {"nome": "Vilarelho", "volume_m3": 192.0, "oficial": true, "classe": "T"}}, {"type": "Feature", "geometry": {"type": "Point", "coordinates": [-7.9600506474885995, 41.1895981707938]}, "properties": {"nome": "DFCI Loivos Monte", "volume_m3": 128.0, "oficial": true, "classe": "M"}}, {"type": "Feature", "geometry": {"type": "Point", "coordinates": [-8.00351873144097, 41.19062816862308]}, "properties": {"nome": "Boscras", "volume_m3": 13.0, "oficial": true, "classe": "T"}}, {"type": "Feature", "geometry": {"type": "Point", "coordinates": [-7.980286681138477, 41.193007040195276]}, "properties": {"nome": "Casa do Jarlouco", "volume_m3": 18.0, "oficial": true, "classe": "T"}}, {"type": "Feature", "geometry": {"type": "Point", "coordinates": [-8.023687323765635, 41.19431455622644]}, "properties": {"nome": "DFCI Sra da Guia", "volume_m3": 171.0, "oficial": true, "classe": "M"}}, {"type": "Feature", "geometry": {"type": "Point", "coordinates": [-7.946594224022872, 41.19636289176822]}, "properties": {"nome": "Padrões", "volume_m3": 6.0, "oficial": true, "classe": "T"}}, {"type": "Feature", "geometry": {"type": "Point", "coordinates": [-7.8961949123464885, 41.19972318094236]}, "properties": {"nome": "DFCI Cimo de Teixeiró", "volume_m3": 126.0, "oficial": true, "classe": "M"}}, {"type": "Feature", "geometry": {"type": "Point", "coordinates": [-7.9772168787701725, 41.20035667745375]}, "properties": {"nome": "Loivos do Monte (EN 321)", "volume_m3": 11.0, "oficial": true, "classe": "T"}}, {"type": "Feature", "geometry": {"type": "Point", "coordinates": [-7.907581510888139, 41.21215931242513]}, "properties": {"nome": "Mafómedes", "volume_m3": 10.0, "oficial": true, "classe": "T"}}, {"type": "Feature", "geometry": {"type": "Point", "coordinates": [-7.897085914571408, 41.22258517868788]}, "properties": {"nome": "DFCI Mafomedes", "volume_m3": 300.0, "oficial": true, "classe": "M"}}, {"type": "Feature", "geometry": {"type": "Point", "coordinates": [-7.9471154700369055, 41.14313629127537]}, "properties": {"nome": "Piscina Santa Marinha do Zezere", "volume_m3": 400.0, "oficial": true, "classe": "M"}}, {"type": "Feature", "geometry": {"type": "Point", "coordinates": [-8.063289299351021, 41.10264866572904]}, "properties": {"nome": "Piscina de Ancede", "volume_m3": 400.0, "oficial": true, "classe": "M"}}]}