{"type": "FeatureCollection", "properties": {"year": 2026, "fetched": "2026-08-11", "source": "ANEPC via fogos.pt"}, "features": [{"type": "Feature", "geometry": {"type": "Point", "coordinates": [-7.91393, 41.196883]}, "properties": {"data": "10-08-2026", "hora": "18:55", "freguesia": "Teixeira E Teixeiró", "natureza": "Mato", "operacionais": 5}}, {"type": "Feature", "geometry": {"type": "Point", "coordinates": [-7.913567, 41.181332]}, "properties": {"data": "10-08-2026", "hora": "12:47", "freguesia": "Teixeira E Teixeiró", "natureza": "Mato", "operacionais": 0}}, {"type": "Feature", "geometry": {"type": "Point", "coordinates": [-7.902249, 41.18863]}, "properties": {"data": "09-08-2026", "hora": "14:01", "freguesia": "Teixeira E Teixeiró", "natureza": "Mato", "operacionais": 5}}, {"type": "Feature", "geometry": {"type": "Point", "coordinates": [-7.998456, 41.123167]}, "properties": {"data": "09-08-2026", "hora": "10:56", "freguesia": "Santa Cruz Do Douro E São Tomé De Covelas", "natureza": "Mato", "operacionais": 0}}, {"type": "Feature", "geometry": {"type": "Point", "coordinates": [-7.913068, 41.179935]}, "properties": {"data": "09-08-2026", "hora": "00:08", "freguesia": "Teixeira E Teixeiró", "natureza": "Mato", "operacionais": 0}}, {"type": "Feature", "geometry": {"type": "Point", "coordinates": [-7.944284, 41.153557]}, "properties": {"data": "08-08-2026", "hora": "01:20", "freguesia": "Santa Marinha Do Zêzere", "natureza": "Mato", "operacionais": 0}}, {"type": "Feature", "geometry": {"type": "Point", "coordinates": [-7.938743, 41.123973]}, "properties": {"data": "07-08-2026", "hora": "17:03", "freguesia": "Frende", "natureza": "Mato", "operacionais": 10}}, {"type": "Feature", "geometry": {"type": "Point", "coordinates": [-7.95272, 41.17294]}, "properties": {"data": "06-08-2026", "hora": "01:30", "freguesia": "Gestaçô", "natureza": "Mato", "operacionais": 0}}, {"type": "Feature", "geometry": {"type": "Point", "coordinates": [-7.92356, 41.1918]}, "properties": {"data": "05-08-2026", "hora": "16:26", "freguesia": "Teixeira E Teixeiró", "natureza": "Agrícola", "operacionais": 5}}, {"type": "Feature", "geometry": {"type": "Point", "coordinates": [-7.94482, 41.155318]}, "properties": {"data": "05-08-2026", "hora": "13:11", "freguesia": "Santa Marinha Do Zêzere", "natureza": "Agrícola", "operacionais": 0}}, {"type": "Feature", "geometry": {"type": "Point", "coordinates": [-8.055757, 41.101911]}, "properties": {"data": "04-08-2026", "hora": "22:48", "freguesia": "Ancede E Ribadouro", "natureza": "Mato", "operacionais": 5}}, {"type": "Feature", "geometry": {"type": "Point", "coordinates": [-7.913093, 41.153422]}, "properties": {"data": "02-08-2026", "hora": "02:42", "freguesia": "Loivos Da Ribeira E Tresouras", "natureza": "Mato", "operacionais": 8}}, {"type": "Feature", "geometry": {"type": "Point", "coordinates": [-8.054465, 41.141298]}, "properties": {"data": "18-07-2026", "hora": "20:41", "freguesia": "Gove", "natureza": "Mato", "operacionais": 5}}, {"type": "Feature", "geometry": {"type": "Point", "coordinates": [-7.970738, 41.145355]}, "properties": {"data": "12-07-2026", "hora": "01:00", "freguesia": "Valadares", "natureza": "Mato", "operacionais": 5}}, {"type": "Feature", "geometry": {"type": "Point", "coordinates": [-7.948055, 41.156443]}, "properties": {"data": "10-07-2026", "hora": "21:14", "freguesia": "Santa Marinha Do Zêzere", "natureza": "Mato", "operacionais": 5}}, {"type": "Feature", "geometry": {"type": "Point", "coordinates": [-7.960341, 41.172942]}, "properties": {"data": "08-07-2026", "hora": "02:38", "freguesia": "Viariz", "natureza": "Mato", "operacionais": 10}}, {"type": "Feature", "geometry": {"type": "Point", "coordinates": [-7.946153, 41.155388]}, "properties": {"data": "04-07-2026", "hora": "21:35", "freguesia": "Santa Marinha Do Zêzere", "natureza": "Mato", "operacionais": 2}}, {"type": "Feature", "geometry": {"type": "Point", "coordinates": [-8.055757, 41.101911]}, "properties": {"data": "03-07-2026", "hora": "01:00", "freguesia": "Ancede E Ribadouro", "natureza": "Mato", "operacionais": 0}}, {"type": "Feature", "geometry": {"type": "Point", "coordinates": [-8.044629, 41.09711]}, "properties": {"data": "02-07-2026", "hora": "21:16", "freguesia": "Ancede E Ribadouro", "natureza": "Mato", "operacionais": 0}}, {"type": "Feature", "geometry": {"type": "Point", "coordinates": [-8.059092, 41.11069]}, "properties": {"data": "29-06-2026", "hora": "15:40", "freguesia": "Ancede E Ribadouro", "natureza": "Mato", "operacionais": 2}}, {"type": "Feature", "geometry": {"type": "Point", "coordinates": [-8.060823, 41.10915]}, "properties": {"data": "29-06-2026", "hora": "11:57", "freguesia": "Ancede E Ribadouro", "natureza": "Mato", "operacionais": 0}}, {"type": "Feature", "geometry": {"type": "Point", "coordinates": [-8.075537, 41.094012]}, "properties": {"data": "09-06-2026", "hora": "15:11", "freguesia": "Ancede E Ribadouro", "natureza": "Mato", "operacionais": 2}}, {"type": "Feature", "geometry": {"type": "Point", "coordinates": [-8.011088, 41.111843]}, "properties": {"data": "08-06-2026", "hora": "23:41", "freguesia": "Santa Cruz Do Douro E São Tomé De Covelas", "natureza": "Mato", "operacionais": 0}}, {"type": "Feature", "geometry": {"type": "Point", "coordinates": [-7.963737, 41.131585]}, "properties": {"data": "06-06-2026", "hora": "05:51", "freguesia": "Santa Marinha Do Zêzere", "natureza": "Mato", "operacionais": 5}}, {"type": "Feature", "geometry": {"type": "Point", "coordinates": [-7.972469, 41.12312]}, "properties": {"data": "06-06-2026", "hora": "04:12", "freguesia": "Santa Cruz Do Douro E São Tomé De Covelas", "natureza": "Mato", "operacionais": 5}}, {"type": "Feature", "geometry": {"type": "Point", "coordinates": [-8.055757, 41.101911]}, "properties": {"data": "30-05-2026", "hora": "22:05", "freguesia": "Ancede E Ribadouro", "natureza": "Agrícola", "operacionais": 5}}, {"type": "Feature", "geometry": {"type": "Point", "coordinates": [-8.070037, 41.098502]}, "properties": {"data": "29-05-2026", "hora": "12:21", "freguesia": "Ancede E Ribadouro", "natureza": "Mato", "operacionais": 15}}, {"type": "Feature", "geometry": {"type": "Point", "coordinates": [-7.990737, 41.193363]}, "properties": {"data": "20-05-2026", "hora": "19:19", "freguesia": "Campelo E Ovil", "natureza": "Mato", "operacionais": 5}}, {"type": "Feature", "geometry": {"type": "Point", "coordinates": [-8.070453, 41.098523]}, "properties": {"data": "20-05-2026", "hora": "17:15", "freguesia": "Ancede E Ribadouro", "natureza": "Mato", "operacionais": 0}}, {"type": "Feature", "geometry": {"type": "Point", "coordinates": [-7.931985, 41.122602]}, "properties": {"data": "16-05-2026", "hora": "15:41", "freguesia": "Frende", "natureza": "Mato", "operacionais": 5}}, {"type": "Feature", "geometry": {"type": "Point", "coordinates": [-7.995193, 41.14787]}, "properties": {"data": "22-04-2026", "hora": "13:41", "freguesia": "Valadares", "natureza": "Mato", "operacionais": 5}}, {"type": "Feature", "geometry": {"type": "Point", "coordinates": [-7.991133, 41.19394]}, "properties": {"data": "18-04-2026", "hora": "13:30", "freguesia": "Campelo E Ovil", "natureza": "Mato", "operacionais": 4}}, {"type": "Feature", "geometry": {"type": "Point", "coordinates": [-7.899332, 41.174678]}, "properties": {"data": "18-04-2026", "hora": "08:35", "freguesia": "Gestaçô", "natureza": "Mato", "operacionais": 3}}, {"type": "Feature", "geometry": {"type": "Point", "coordinates": [-8.059622, 41.152175]}, "properties": {"data": "10-04-2026", "hora": "06:30", "freguesia": "Campelo E Ovil", "natureza": "Mato", "operacionais": 0}}, {"type": "Feature", "geometry": {"type": "Point", "coordinates": [-7.98543300006125, 41.1218670002619]}, "properties": {"data": "17-03-2026", "hora": "19:47", "freguesia": "São Tomé De Covelas", "natureza": "Mato", "operacionais": -1}}, {"type": "Feature", "geometry": {"type": "Point", "coordinates": [-8.01664, 41.12715]}, "properties": {"data": "06-04-2026", "hora": "14:54", "freguesia": "Santa Cruz Do Douro E São Tomé De Covelas", "natureza": "Mato", "operacionais": 0}}, {"type": "Feature", "geometry": {"type": "Point", "coordinates": [-8.015347, 41.130472]}, "properties": {"data": "05-04-2026", "hora": "21:58", "freguesia": "Baião (Santa Leocádia) E Mesquinhata", "natureza": "Mato", "operacionais": 5}}, {"type": "Feature", "geometry": {"type": "Point", "coordinates": [-8.015692, 41.129932]}, "properties": {"data": "05-04-2026", "hora": "18:00", "freguesia": "Santa Cruz Do Douro E São Tomé De Covelas", "natureza": "Mato", "operacionais": 1}}, {"type": "Feature", "geometry": {"type": "Point", "coordinates": [-8.012657, 41.130267]}, "properties": {"data": "04-04-2026", "hora": "22:10", "freguesia": "Santa Cruz Do Douro E São Tomé De Covelas", "natureza": "Mato", "operacionais": 9}}, {"type": "Feature", "geometry": {"type": "Point", "coordinates": [-7.997952, 41.14053]}, "properties": {"data": "04-04-2026", "hora": "21:00", "freguesia": "Valadares", "natureza": "Mato", "operacionais": 2}}, {"type": "Feature", "geometry": {"type": "Point", "coordinates": [-8.00462, 41.1174]}, "properties": {"data": "04-04-2026", "hora": "19:38", "freguesia": "Santa Cruz Do Douro E São Tomé De Covelas", "natureza": "Mato", "operacionais": 0}}, {"type": "Feature", "geometry": {"type": "Point", "coordinates": [-7.946107, 41.145115]}, "properties": {"data": "04-04-2026", "hora": "17:07", "freguesia": "Santa Marinha Do Zêzere", "natureza": "Mato", "operacionais": 6}}, {"type": "Feature", "geometry": {"type": "Point", "coordinates": [-8.037592, 41.14298]}, "properties": {"data": "04-04-2026", "hora": "13:50", "freguesia": "Valadares", "natureza": "Mato", "operacionais": 5}}, {"type": "Feature", "geometry": {"type": "Point", "coordinates": [-7.89923, 41.17477]}, "properties": {"data": "03-04-2026", "hora": "15:37", "freguesia": "Teixeira E Teixeiró", "natureza": "Mato", "operacionais": 13}}, {"type": "Feature", "geometry": {"type": "Point", "coordinates": [-7.99686, 41.141498]}, "properties": {"data": "03-04-2026", "hora": "14:50", "freguesia": "Valadares", "natureza": "Mato", "operacionais": 4}}, {"type": "Feature", "geometry": {"type": "Point", "coordinates": [-7.921174, 41.123354]}, "properties": {"data": "03-04-2026", "hora": "11:14", "freguesia": "Frende", "natureza": "Mato", "operacionais": 0}}, {"type": "Feature", "geometry": {"type": "Point", "coordinates": [-7.990132, 41.195555]}, "properties": {"data": "02-04-2026", "hora": "23:09", "freguesia": "Campelo E Ovil", "natureza": "Mato", "operacionais": 0}}, {"type": "Feature", "geometry": {"type": "Point", "coordinates": [-8.014978, 41.129465]}, "properties": {"data": "01-04-2026", "hora": "15:06", "freguesia": "Santa Cruz Do Douro E São Tomé De Covelas", "natureza": "Mato", "operacionais": 0}}, {"type": "Feature", "geometry": {"type": "Point", "coordinates": [-7.931355, 41.1526]}, "properties": {"data": "30-03-2026", "hora": "22:47", "freguesia": "Gestaçô", "natureza": "Mato", "operacionais": 9}}, {"type": "Feature", "geometry": {"type": "Point", "coordinates": [-7.931893, 41.151595]}, "properties": {"data": "30-03-2026", "hora": "20:56", "freguesia": "Gestaçô", "natureza": "Mato", "operacionais": 0}}, {"type": "Feature", "geometry": {"type": "Point", "coordinates": [-7.95029, 41.14364]}, "properties": {"data": "27-03-2026", "hora": "20:44", "freguesia": "Santa Marinha Do Zêzere", "natureza": "Mato", "operacionais": 2}}, {"type": "Feature", "geometry": {"type": "Point", "coordinates": [-8.037372, 41.163668]}, "properties": {"data": "27-03-2026", "hora": "15:51", "freguesia": "Campelo E Ovil", "natureza": "Mato", "operacionais": 0}}, {"type": "Feature", "geometry": {"type": "Point", "coordinates": [-7.957867, 41.155397]}, "properties": {"data": "25-03-2026", "hora": "19:44", "freguesia": "Santa Marinha Do Zêzere", "natureza": "Mato", "operacionais": 10}}, {"type": "Feature", "geometry": {"type": "Point", "coordinates": [-8.099977, 41.117163]}, "properties": {"data": "24-03-2026", "hora": "09:38", "freguesia": "Baião (Santa Leocádia) E Mesquinhata", "natureza": "Mato", "operacionais": 7}}, {"type": "Feature", "geometry": {"type": "Point", "coordinates": [-7.996612, 41.14279]}, "properties": {"data": "21-03-2026", "hora": "15:15", "freguesia": "Valadares", "natureza": "Mato", "operacionais": 0}}, {"type": "Feature", "geometry": {"type": "Point", "coordinates": [-7.985433, 41.121867]}, "properties": {"data": "17-03-2026", "hora": "19:47", "freguesia": "Santa Cruz Do Douro E São Tomé De Covelas", "natureza": "Mato", "operacionais": 5}}]}